<?xml version="1.0" encoding="UTF-8"?>
<kml xmlns="http://www.opengis.net/kml/2.2" xmlns:gx="http://www.google.com/kml/ext/2.2">
  <Document>
    <name>금산 10경 이야기 여행</name>
    <description><![CDATA[금산군청에서 출발하여 금산 10경을 둘러보는 Google Earth Tour입니다. 공식 10경 중 복합 명소를 각각 보여 주기 위해 총 12개 정차 지점으로 구성했습니다.]]></description>

    <Style id="yellowLabel">
      <IconStyle><scale>1.0</scale><Icon><href>http://maps.google.com/mapfiles/kml/paddle/ylw-circle.png</href></Icon></IconStyle>
      <LabelStyle><color>ff00ffff</color><scale>1.6</scale></LabelStyle>
    </Style>
    <Style id="routeStyle">
      <LineStyle><color>ff00ffff</color><width>4</width></LineStyle>
    </Style>

    <Folder><name>금산 10경 지점</name>
      <Placemark><name>출발 · 금산군청</name><styleUrl>#yellowLabel</styleUrl><Point><coordinates>127.488111,36.108694,0</coordinates></Point></Placemark>
      <Placemark><name>제1경 · 적벽강 비단물길</name><styleUrl>#yellowLabel</styleUrl><Point><coordinates>127.591458,36.050662,0</coordinates></Point></Placemark>
      <Placemark><name>제2경 · 대둔산 낙조대</name><styleUrl>#yellowLabel</styleUrl><Point><coordinates>127.323700,36.124500,0</coordinates></Point></Placemark>
      <Placemark><name>제3경 · 진악산 개삼터</name><styleUrl>#yellowLabel</styleUrl><Point><coordinates>127.478856,36.074777,0</coordinates></Point></Placemark>
      <Placemark><name>제4경 · 서대산 산꽃세상</name><styleUrl>#yellowLabel</styleUrl><Point><coordinates>127.610484,36.158130,0</coordinates></Point></Placemark>
      <Placemark><name>제5경 · 산림문화 힐링명소</name><styleUrl>#yellowLabel</styleUrl><Point><coordinates>127.377613,36.056719,0</coordinates></Point></Placemark>
      <Placemark><name>제6경 · 금산인삼 세계농업유산</name><styleUrl>#yellowLabel</styleUrl><Point><coordinates>127.566900,36.125500,0</coordinates></Point></Placemark>
      <Placemark><name>제7경 · 인삼·약령시장</name><styleUrl>#yellowLabel</styleUrl><Point><coordinates>127.496056,36.100456,0</coordinates></Point></Placemark>
      <Placemark><name>제8경 · 금성산</name><styleUrl>#yellowLabel</styleUrl><Point><coordinates>127.474700,36.142200,0</coordinates></Point></Placemark>
      <Placemark><name>제8경 · 칠백의총</name><styleUrl>#yellowLabel</styleUrl><Point><coordinates>127.492688,36.130238,0</coordinates></Point></Placemark>
      <Placemark><name>제9경 · 월영산 원골</name><styleUrl>#yellowLabel</styleUrl><Point><coordinates>127.590900,36.129400,0</coordinates></Point></Placemark>
      <Placemark><name>제10경 · 태조대왕 태실</name><styleUrl>#yellowLabel</styleUrl><Point><coordinates>127.483300,36.211800,0</coordinates></Point></Placemark>
      <Placemark><name>제10경 · 요광리 은행나무</name><styleUrl>#yellowLabel</styleUrl><Point><coordinates>127.492611,36.211944,0</coordinates></Point></Placemark>
    </Folder>

    <Placemark><name>금산 10경 이동 경로</name><styleUrl>#routeStyle</styleUrl><LineString><tessellate>1</tessellate><coordinates>
      127.488111,36.108694,0 127.496056,36.100456,0 127.478856,36.074777,0 127.377613,36.056719,0 127.323700,36.124500,0 127.591458,36.050662,0 127.590900,36.129400,0 127.566900,36.125500,0 127.610484,36.158130,0 127.492688,36.130238,0 127.474700,36.142200,0 127.483300,36.211800,0 127.492611,36.211944,0
    </coordinates></LineString></Placemark>

    <gx:Tour><name>금산 10경 전체 투어 · 0.5배 속도</name><gx:Playlist>
      <gx:FlyTo><gx:duration>10</gx:duration><gx:flyToMode>smooth</gx:flyToMode><LookAt><longitude>127.488111</longitude><latitude>36.108694</latitude><altitude>0</altitude><heading>0</heading><tilt>70</tilt><range>10000</range><altitudeMode>relativeToGround</altitudeMode></LookAt></gx:FlyTo>
      <gx:Wait><gx:duration>3</gx:duration></gx:Wait>

      <!-- Each destination: slow approach followed by one complete 360-degree orbit. -->
      <gx:FlyTo><gx:duration>14</gx:duration><gx:flyToMode>smooth</gx:flyToMode><LookAt><longitude>127.496056</longitude><latitude>36.100456</latitude><altitude>0</altitude><heading>0</heading><tilt>70</tilt><range>10000</range><altitudeMode>relativeToGround</altitudeMode></LookAt></gx:FlyTo>
      <gx:FlyTo><gx:duration>5</gx:duration><gx:flyToMode>smooth</gx:flyToMode><LookAt><longitude>127.496056</longitude><latitude>36.100456</latitude><heading>90</heading><tilt>70</tilt><range>10000</range><altitudeMode>relativeToGround</altitudeMode></LookAt></gx:FlyTo><gx:FlyTo><gx:duration>5</gx:duration><gx:flyToMode>smooth</gx:flyToMode><LookAt><longitude>127.496056</longitude><latitude>36.100456</latitude><heading>180</heading><tilt>70</tilt><range>10000</range><altitudeMode>relativeToGround</altitudeMode></LookAt></gx:FlyTo><gx:FlyTo><gx:duration>5</gx:duration><gx:flyToMode>smooth</gx:flyToMode><LookAt><longitude>127.496056</longitude><latitude>36.100456</latitude><heading>270</heading><tilt>70</tilt><range>10000</range><altitudeMode>relativeToGround</altitudeMode></LookAt></gx:FlyTo><gx:FlyTo><gx:duration>5</gx:duration><gx:flyToMode>smooth</gx:flyToMode><LookAt><longitude>127.496056</longitude><latitude>36.100456</latitude><heading>360</heading><tilt>70</tilt><range>10000</range><altitudeMode>relativeToGround</altitudeMode></LookAt></gx:FlyTo>

      <gx:FlyTo><gx:duration>14</gx:duration><gx:flyToMode>smooth</gx:flyToMode><LookAt><longitude>127.478856</longitude><latitude>36.074777</latitude><heading>0</heading><tilt>70</tilt><range>10000</range><altitudeMode>relativeToGround</altitudeMode></LookAt></gx:FlyTo>
      <gx:FlyTo><gx:duration>5</gx:duration><gx:flyToMode>smooth</gx:flyToMode><LookAt><longitude>127.478856</longitude><latitude>36.074777</latitude><heading>90</heading><tilt>70</tilt><range>10000</range><altitudeMode>relativeToGround</altitudeMode></LookAt></gx:FlyTo><gx:FlyTo><gx:duration>5</gx:duration><gx:flyToMode>smooth</gx:flyToMode><LookAt><longitude>127.478856</longitude><latitude>36.074777</latitude><heading>180</heading><tilt>70</tilt><range>10000</range><altitudeMode>relativeToGround</altitudeMode></LookAt></gx:FlyTo><gx:FlyTo><gx:duration>5</gx:duration><gx:flyToMode>smooth</gx:flyToMode><LookAt><longitude>127.478856</longitude><latitude>36.074777</latitude><heading>270</heading><tilt>70</tilt><range>10000</range><altitudeMode>relativeToGround</altitudeMode></LookAt></gx:FlyTo><gx:FlyTo><gx:duration>5</gx:duration><gx:flyToMode>smooth</gx:flyToMode><LookAt><longitude>127.478856</longitude><latitude>36.074777</latitude><heading>360</heading><tilt>70</tilt><range>10000</range><altitudeMode>relativeToGround</altitudeMode></LookAt></gx:FlyTo>

      <gx:FlyTo><gx:duration>14</gx:duration><gx:flyToMode>smooth</gx:flyToMode><LookAt><longitude>127.377613</longitude><latitude>36.056719</latitude><heading>0</heading><tilt>70</tilt><range>10000</range><altitudeMode>relativeToGround</altitudeMode></LookAt></gx:FlyTo>
      <gx:FlyTo><gx:duration>5</gx:duration><gx:flyToMode>smooth</gx:flyToMode><LookAt><longitude>127.377613</longitude><latitude>36.056719</latitude><heading>90</heading><tilt>70</tilt><range>10000</range><altitudeMode>relativeToGround</altitudeMode></LookAt></gx:FlyTo><gx:FlyTo><gx:duration>5</gx:duration><gx:flyToMode>smooth</gx:flyToMode><LookAt><longitude>127.377613</longitude><latitude>36.056719</latitude><heading>180</heading><tilt>70</tilt><range>10000</range><altitudeMode>relativeToGround</altitudeMode></LookAt></gx:FlyTo><gx:FlyTo><gx:duration>5</gx:duration><gx:flyToMode>smooth</gx:flyToMode><LookAt><longitude>127.377613</longitude><latitude>36.056719</latitude><heading>270</heading><tilt>70</tilt><range>10000</range><altitudeMode>relativeToGround</altitudeMode></LookAt></gx:FlyTo><gx:FlyTo><gx:duration>5</gx:duration><gx:flyToMode>smooth</gx:flyToMode><LookAt><longitude>127.377613</longitude><latitude>36.056719</latitude><heading>360</heading><tilt>70</tilt><range>10000</range><altitudeMode>relativeToGround</altitudeMode></LookAt></gx:FlyTo>

      <gx:FlyTo><gx:duration>14</gx:duration><gx:flyToMode>smooth</gx:flyToMode><LookAt><longitude>127.323700</longitude><latitude>36.124500</latitude><heading>0</heading><tilt>70</tilt><range>10000</range><altitudeMode>relativeToGround</altitudeMode></LookAt></gx:FlyTo>
      <gx:FlyTo><gx:duration>5</gx:duration><gx:flyToMode>smooth</gx:flyToMode><LookAt><longitude>127.323700</longitude><latitude>36.124500</latitude><heading>90</heading><tilt>70</tilt><range>10000</range><altitudeMode>relativeToGround</altitudeMode></LookAt></gx:FlyTo><gx:FlyTo><gx:duration>5</gx:duration><gx:flyToMode>smooth</gx:flyToMode><LookAt><longitude>127.323700</longitude><latitude>36.124500</latitude><heading>180</heading><tilt>70</tilt><range>10000</range><altitudeMode>relativeToGround</altitudeMode></LookAt></gx:FlyTo><gx:FlyTo><gx:duration>5</gx:duration><gx:flyToMode>smooth</gx:flyToMode><LookAt><longitude>127.323700</longitude><latitude>36.124500</latitude><heading>270</heading><tilt>70</tilt><range>10000</range><altitudeMode>relativeToGround</altitudeMode></LookAt></gx:FlyTo><gx:FlyTo><gx:duration>5</gx:duration><gx:flyToMode>smooth</gx:flyToMode><LookAt><longitude>127.323700</longitude><latitude>36.124500</latitude><heading>360</heading><tilt>70</tilt><range>10000</range><altitudeMode>relativeToGround</altitudeMode></LookAt></gx:FlyTo>

      <gx:FlyTo><gx:duration>14</gx:duration><gx:flyToMode>smooth</gx:flyToMode><LookAt><longitude>127.591458</longitude><latitude>36.050662</latitude><heading>0</heading><tilt>70</tilt><range>10000</range><altitudeMode>relativeToGround</altitudeMode></LookAt></gx:FlyTo>
      <gx:FlyTo><gx:duration>5</gx:duration><gx:flyToMode>smooth</gx:flyToMode><LookAt><longitude>127.591458</longitude><latitude>36.050662</latitude><heading>90</heading><tilt>70</tilt><range>10000</range><altitudeMode>relativeToGround</altitudeMode></LookAt></gx:FlyTo><gx:FlyTo><gx:duration>5</gx:duration><gx:flyToMode>smooth</gx:flyToMode><LookAt><longitude>127.591458</longitude><latitude>36.050662</latitude><heading>180</heading><tilt>70</tilt><range>10000</range><altitudeMode>relativeToGround</altitudeMode></LookAt></gx:FlyTo><gx:FlyTo><gx:duration>5</gx:duration><gx:flyToMode>smooth</gx:flyToMode><LookAt><longitude>127.591458</longitude><latitude>36.050662</latitude><heading>270</heading><tilt>70</tilt><range>10000</range><altitudeMode>relativeToGround</altitudeMode></LookAt></gx:FlyTo><gx:FlyTo><gx:duration>5</gx:duration><gx:flyToMode>smooth</gx:flyToMode><LookAt><longitude>127.591458</longitude><latitude>36.050662</latitude><heading>360</heading><tilt>70</tilt><range>10000</range><altitudeMode>relativeToGround</altitudeMode></LookAt></gx:FlyTo>

      <gx:FlyTo><gx:duration>14</gx:duration><gx:flyToMode>smooth</gx:flyToMode><LookAt><longitude>127.590900</longitude><latitude>36.129400</latitude><heading>0</heading><tilt>70</tilt><range>10000</range><altitudeMode>relativeToGround</altitudeMode></LookAt></gx:FlyTo>
      <gx:FlyTo><gx:duration>5</gx:duration><gx:flyToMode>smooth</gx:flyToMode><LookAt><longitude>127.590900</longitude><latitude>36.129400</latitude><heading>90</heading><tilt>70</tilt><range>10000</range><altitudeMode>relativeToGround</altitudeMode></LookAt></gx:FlyTo><gx:FlyTo><gx:duration>5</gx:duration><gx:flyToMode>smooth</gx:flyToMode><LookAt><longitude>127.590900</longitude><latitude>36.129400</latitude><heading>180</heading><tilt>70</tilt><range>10000</range><altitudeMode>relativeToGround</altitudeMode></LookAt></gx:FlyTo><gx:FlyTo><gx:duration>5</gx:duration><gx:flyToMode>smooth</gx:flyToMode><LookAt><longitude>127.590900</longitude><latitude>36.129400</latitude><heading>270</heading><tilt>70</tilt><range>10000</range><altitudeMode>relativeToGround</altitudeMode></LookAt></gx:FlyTo><gx:FlyTo><gx:duration>5</gx:duration><gx:flyToMode>smooth</gx:flyToMode><LookAt><longitude>127.590900</longitude><latitude>36.129400</latitude><heading>360</heading><tilt>70</tilt><range>10000</range><altitudeMode>relativeToGround</altitudeMode></LookAt></gx:FlyTo>

      <gx:FlyTo><gx:duration>14</gx:duration><gx:flyToMode>smooth</gx:flyToMode><LookAt><longitude>127.566900</longitude><latitude>36.125500</latitude><heading>0</heading><tilt>70</tilt><range>10000</range><altitudeMode>relativeToGround</altitudeMode></LookAt></gx:FlyTo>
      <gx:FlyTo><gx:duration>5</gx:duration><gx:flyToMode>smooth</gx:flyToMode><LookAt><longitude>127.566900</longitude><latitude>36.125500</latitude><heading>90</heading><tilt>70</tilt><range>10000</range><altitudeMode>relativeToGround</altitudeMode></LookAt></gx:FlyTo><gx:FlyTo><gx:duration>5</gx:duration><gx:flyToMode>smooth</gx:flyToMode><LookAt><longitude>127.566900</longitude><latitude>36.125500</latitude><heading>180</heading><tilt>70</tilt><range>10000</range><altitudeMode>relativeToGround</altitudeMode></LookAt></gx:FlyTo><gx:FlyTo><gx:duration>5</gx:duration><gx:flyToMode>smooth</gx:flyToMode><LookAt><longitude>127.566900</longitude><latitude>36.125500</latitude><heading>270</heading><tilt>70</tilt><range>10000</range><altitudeMode>relativeToGround</altitudeMode></LookAt></gx:FlyTo><gx:FlyTo><gx:duration>5</gx:duration><gx:flyToMode>smooth</gx:flyToMode><LookAt><longitude>127.566900</longitude><latitude>36.125500</latitude><heading>360</heading><tilt>70</tilt><range>10000</range><altitudeMode>relativeToGround</altitudeMode></LookAt></gx:FlyTo>

      <gx:FlyTo><gx:duration>14</gx:duration><gx:flyToMode>smooth</gx:flyToMode><LookAt><longitude>127.610484</longitude><latitude>36.158130</latitude><heading>0</heading><tilt>70</tilt><range>10000</range><altitudeMode>relativeToGround</altitudeMode></LookAt></gx:FlyTo>
      <gx:FlyTo><gx:duration>5</gx:duration><gx:flyToMode>smooth</gx:flyToMode><LookAt><longitude>127.610484</longitude><latitude>36.158130</latitude><heading>90</heading><tilt>70</tilt><range>10000</range><altitudeMode>relativeToGround</altitudeMode></LookAt></gx:FlyTo><gx:FlyTo><gx:duration>5</gx:duration><gx:flyToMode>smooth</gx:flyToMode><LookAt><longitude>127.610484</longitude><latitude>36.158130</latitude><heading>180</heading><tilt>70</tilt><range>10000</range><altitudeMode>relativeToGround</altitudeMode></LookAt></gx:FlyTo><gx:FlyTo><gx:duration>5</gx:duration><gx:flyToMode>smooth</gx:flyToMode><LookAt><longitude>127.610484</longitude><latitude>36.158130</latitude><heading>270</heading><tilt>70</tilt><range>10000</range><altitudeMode>relativeToGround</altitudeMode></LookAt></gx:FlyTo><gx:FlyTo><gx:duration>5</gx:duration><gx:flyToMode>smooth</gx:flyToMode><LookAt><longitude>127.610484</longitude><latitude>36.158130</latitude><heading>360</heading><tilt>70</tilt><range>10000</range><altitudeMode>relativeToGround</altitudeMode></LookAt></gx:FlyTo>

      <gx:FlyTo><gx:duration>14</gx:duration><gx:flyToMode>smooth</gx:flyToMode><LookAt><longitude>127.492688</longitude><latitude>36.130238</latitude><heading>0</heading><tilt>70</tilt><range>10000</range><altitudeMode>relativeToGround</altitudeMode></LookAt></gx:FlyTo>
      <gx:FlyTo><gx:duration>5</gx:duration><gx:flyToMode>smooth</gx:flyToMode><LookAt><longitude>127.492688</longitude><latitude>36.130238</latitude><heading>90</heading><tilt>70</tilt><range>10000</range><altitudeMode>relativeToGround</altitudeMode></LookAt></gx:FlyTo><gx:FlyTo><gx:duration>5</gx:duration><gx:flyToMode>smooth</gx:flyToMode><LookAt><longitude>127.492688</longitude><latitude>36.130238</latitude><heading>180</heading><tilt>70</tilt><range>10000</range><altitudeMode>relativeToGround</altitudeMode></LookAt></gx:FlyTo><gx:FlyTo><gx:duration>5</gx:duration><gx:flyToMode>smooth</gx:flyToMode><LookAt><longitude>127.492688</longitude><latitude>36.130238</latitude><heading>270</heading><tilt>70</tilt><range>10000</range><altitudeMode>relativeToGround</altitudeMode></LookAt></gx:FlyTo><gx:FlyTo><gx:duration>5</gx:duration><gx:flyToMode>smooth</gx:flyToMode><LookAt><longitude>127.492688</longitude><latitude>36.130238</latitude><heading>360</heading><tilt>70</tilt><range>10000</range><altitudeMode>relativeToGround</altitudeMode></LookAt></gx:FlyTo>

      <gx:FlyTo><gx:duration>10</gx:duration><gx:flyToMode>smooth</gx:flyToMode><LookAt><longitude>127.474700</longitude><latitude>36.142200</latitude><heading>0</heading><tilt>70</tilt><range>10000</range><altitudeMode>relativeToGround</altitudeMode></LookAt></gx:FlyTo>
      <gx:FlyTo><gx:duration>5</gx:duration><gx:flyToMode>smooth</gx:flyToMode><LookAt><longitude>127.474700</longitude><latitude>36.142200</latitude><heading>90</heading><tilt>70</tilt><range>10000</range><altitudeMode>relativeToGround</altitudeMode></LookAt></gx:FlyTo><gx:FlyTo><gx:duration>5</gx:duration><gx:flyToMode>smooth</gx:flyToMode><LookAt><longitude>127.474700</longitude><latitude>36.142200</latitude><heading>180</heading><tilt>70</tilt><range>10000</range><altitudeMode>relativeToGround</altitudeMode></LookAt></gx:FlyTo><gx:FlyTo><gx:duration>5</gx:duration><gx:flyToMode>smooth</gx:flyToMode><LookAt><longitude>127.474700</longitude><latitude>36.142200</latitude><heading>270</heading><tilt>70</tilt><range>10000</range><altitudeMode>relativeToGround</altitudeMode></LookAt></gx:FlyTo><gx:FlyTo><gx:duration>5</gx:duration><gx:flyToMode>smooth</gx:flyToMode><LookAt><longitude>127.474700</longitude><latitude>36.142200</latitude><heading>360</heading><tilt>70</tilt><range>10000</range><altitudeMode>relativeToGround</altitudeMode></LookAt></gx:FlyTo>

      <gx:FlyTo><gx:duration>14</gx:duration><gx:flyToMode>smooth</gx:flyToMode><LookAt><longitude>127.483300</longitude><latitude>36.211800</latitude><heading>0</heading><tilt>70</tilt><range>10000</range><altitudeMode>relativeToGround</altitudeMode></LookAt></gx:FlyTo>
      <gx:FlyTo><gx:duration>5</gx:duration><gx:flyToMode>smooth</gx:flyToMode><LookAt><longitude>127.483300</longitude><latitude>36.211800</latitude><heading>90</heading><tilt>70</tilt><range>10000</range><altitudeMode>relativeToGround</altitudeMode></LookAt></gx:FlyTo><gx:FlyTo><gx:duration>5</gx:duration><gx:flyToMode>smooth</gx:flyToMode><LookAt><longitude>127.483300</longitude><latitude>36.211800</latitude><heading>180</heading><tilt>70</tilt><range>10000</range><altitudeMode>relativeToGround</altitudeMode></LookAt></gx:FlyTo><gx:FlyTo><gx:duration>5</gx:duration><gx:flyToMode>smooth</gx:flyToMode><LookAt><longitude>127.483300</longitude><latitude>36.211800</latitude><heading>270</heading><tilt>70</tilt><range>10000</range><altitudeMode>relativeToGround</altitudeMode></LookAt></gx:FlyTo><gx:FlyTo><gx:duration>5</gx:duration><gx:flyToMode>smooth</gx:flyToMode><LookAt><longitude>127.483300</longitude><latitude>36.211800</latitude><heading>360</heading><tilt>70</tilt><range>10000</range><altitudeMode>relativeToGround</altitudeMode></LookAt></gx:FlyTo>

      <gx:FlyTo><gx:duration>8</gx:duration><gx:flyToMode>smooth</gx:flyToMode><LookAt><longitude>127.492611</longitude><latitude>36.211944</latitude><heading>0</heading><tilt>70</tilt><range>10000</range><altitudeMode>relativeToGround</altitudeMode></LookAt></gx:FlyTo>
      <gx:FlyTo><gx:duration>5</gx:duration><gx:flyToMode>smooth</gx:flyToMode><LookAt><longitude>127.492611</longitude><latitude>36.211944</latitude><heading>90</heading><tilt>70</tilt><range>10000</range><altitudeMode>relativeToGround</altitudeMode></LookAt></gx:FlyTo><gx:FlyTo><gx:duration>5</gx:duration><gx:flyToMode>smooth</gx:flyToMode><LookAt><longitude>127.492611</longitude><latitude>36.211944</latitude><heading>180</heading><tilt>70</tilt><range>10000</range><altitudeMode>relativeToGround</altitudeMode></LookAt></gx:FlyTo><gx:FlyTo><gx:duration>5</gx:duration><gx:flyToMode>smooth</gx:flyToMode><LookAt><longitude>127.492611</longitude><latitude>36.211944</latitude><heading>270</heading><tilt>70</tilt><range>10000</range><altitudeMode>relativeToGround</altitudeMode></LookAt></gx:FlyTo><gx:FlyTo><gx:duration>5</gx:duration><gx:flyToMode>smooth</gx:flyToMode><LookAt><longitude>127.492611</longitude><latitude>36.211944</latitude><heading>360</heading><tilt>70</tilt><range>10000</range><altitudeMode>relativeToGround</altitudeMode></LookAt></gx:FlyTo>
      <gx:Wait><gx:duration>4</gx:duration></gx:Wait>
    </gx:Playlist></gx:Tour>
  </Document>
</kml>
