<?xml version="1.0" encoding="UTF-8"?>
<kml xmlns="http://www.opengis.net/kml/2.2" xmlns:gx="http://www.google.com/kml/ext/2.2">
  <Document>
    <name>여호와의 증인 한국지부 2000m·1000m·500m·300m 순환 투어</name>
    <description><![CDATA[실제 카메라 좌표 이동 방식<br/>2,000m → 1,000m → 500m → 300m, 각 1회전]]></description>
    <Style id="centerStyle"><IconStyle><scale>1.25</scale><Icon><href>http://maps.google.com/mapfiles/kml/paddle/red-circle.png</href></Icon></IconStyle><LabelStyle><color>ff00ffff</color><scale>1.2</scale></LabelStyle></Style>
    <Placemark><name>여호와의 증인 한국지부</name><styleUrl>#centerStyle</styleUrl><description>경기도 안성시 공도읍 신두만곡로 73</description><Point><coordinates>127.195580,37.000918,0</coordinates></Point></Placemark>
    <gx:Tour>
      <name>▶ 재생 — 2000m → 1000m → 500m → 300m</name>
      <gx:Playlist>
        <gx:FlyTo>
          <gx:duration>3.0</gx:duration><gx:flyToMode>smooth</gx:flyToMode>
          <Camera><longitude>127.19558000</longitude><latitude>37.01888431</latitude><altitude>950</altitude><heading>180.0</heading><tilt>64.59</tilt><roll>0</roll><altitudeMode>relativeToGround</altitudeMode></Camera>
        </gx:FlyTo>
        <gx:FlyTo>
          <gx:duration>0.6</gx:duration><gx:flyToMode>smooth</gx:flyToMode>
          <Camera><longitude>127.19948739</longitude><latitude>37.01861129</latitude><altitude>950</altitude><heading>190.0</heading><tilt>64.59</tilt><roll>0</roll><altitudeMode>relativeToGround</altitudeMode></Camera>
        </gx:FlyTo>
        <gx:FlyTo>
          <gx:duration>0.6</gx:duration><gx:flyToMode>smooth</gx:flyToMode>
          <Camera><longitude>127.20327597</longitude><latitude>37.01780056</latitude><altitude>950</altitude><heading>200.0</heading><tilt>64.59</tilt><roll>0</roll><altitudeMode>relativeToGround</altitudeMode></Camera>
        </gx:FlyTo>
        <gx:FlyTo>
          <gx:duration>0.6</gx:duration><gx:flyToMode>smooth</gx:flyToMode>
          <Camera><longitude>127.20683056</longitude><latitude>37.01647675</latitude><altitude>950</altitude><heading>210.0</heading><tilt>64.59</tilt><roll>0</roll><altitudeMode>relativeToGround</altitudeMode></Camera>
        </gx:FlyTo>
        <gx:FlyTo>
          <gx:duration>0.6</gx:duration><gx:flyToMode>smooth</gx:flyToMode>
          <Camera><longitude>127.21004310</longitude><latitude>37.01468011</latitude><altitude>950</altitude><heading>220.0</heading><tilt>64.59</tilt><roll>0</roll><altitudeMode>relativeToGround</altitudeMode></Camera>
        </gx:FlyTo>
        <gx:FlyTo>
          <gx:duration>0.6</gx:duration><gx:flyToMode>smooth</gx:flyToMode>
          <Camera><longitude>127.21281595</longitude><latitude>37.01246527</latitude><altitude>950</altitude><heading>230.0</heading><tilt>64.59</tilt><roll>0</roll><altitudeMode>relativeToGround</altitudeMode></Camera>
        </gx:FlyTo>
        <gx:FlyTo>
          <gx:duration>0.6</gx:duration><gx:flyToMode>smooth</gx:flyToMode>
          <Camera><longitude>127.21506486</longitude><latitude>37.00989956</latitude><altitude>950</altitude><heading>240.0</heading><tilt>64.59</tilt><roll>0</roll><altitudeMode>relativeToGround</altitudeMode></Camera>
        </gx:FlyTo>
        <gx:FlyTo>
          <gx:duration>0.6</gx:duration><gx:flyToMode>smooth</gx:flyToMode>
          <Camera><longitude>127.21672153</longitude><latitude>37.00706096</latitude><altitude>950</altitude><heading>250.0</heading><tilt>64.59</tilt><roll>0</roll><altitudeMode>relativeToGround</altitudeMode></Camera>
        </gx:FlyTo>
        <gx:FlyTo>
          <gx:duration>0.6</gx:duration><gx:flyToMode>smooth</gx:flyToMode>
          <Camera><longitude>127.21773566</longitude><latitude>37.00403576</latitude><altitude>950</altitude><heading>260.0</heading><tilt>64.59</tilt><roll>0</roll><altitudeMode>relativeToGround</altitudeMode></Camera>
        </gx:FlyTo>
        <gx:FlyTo>
          <gx:duration>0.6</gx:duration><gx:flyToMode>smooth</gx:flyToMode>
          <Camera><longitude>127.21807652</longitude><latitude>37.00091588</latitude><altitude>950</altitude><heading>270.0</heading><tilt>64.59</tilt><roll>0</roll><altitudeMode>relativeToGround</altitudeMode></Camera>
        </gx:FlyTo>
        <gx:FlyTo>
          <gx:duration>0.6</gx:duration><gx:flyToMode>smooth</gx:flyToMode>
          <Camera><longitude>127.21773384</longitude><latitude>36.99779613</latitude><altitude>950</altitude><heading>280.0</heading><tilt>64.59</tilt><roll>0</roll><altitudeMode>relativeToGround</altitudeMode></Camera>
        </gx:FlyTo>
        <gx:FlyTo>
          <gx:duration>0.6</gx:duration><gx:flyToMode>smooth</gx:flyToMode>
          <Camera><longitude>127.21671811</longitude><latitude>36.99477129</latitude><altitude>950</altitude><heading>290.0</heading><tilt>64.59</tilt><roll>0</roll><altitudeMode>relativeToGround</altitudeMode></Camera>
        </gx:FlyTo>
        <gx:FlyTo>
          <gx:duration>0.6</gx:duration><gx:flyToMode>smooth</gx:flyToMode>
          <Camera><longitude>127.21506026</longitude><latitude>36.99193326</latitude><altitude>950</altitude><heading>300.0</heading><tilt>64.59</tilt><roll>0</roll><altitudeMode>relativeToGround</altitudeMode></Camera>
        </gx:FlyTo>
        <gx:FlyTo>
          <gx:duration>0.6</gx:duration><gx:flyToMode>smooth</gx:flyToMode>
          <Camera><longitude>127.21281072</longitude><latitude>36.98936824</latitude><altitude>950</altitude><heading>310.0</heading><tilt>64.59</tilt><roll>0</roll><altitudeMode>relativeToGround</altitudeMode></Camera>
        </gx:FlyTo>
        <gx:FlyTo>
          <gx:duration>0.6</gx:duration><gx:flyToMode>smooth</gx:flyToMode>
          <Camera><longitude>127.21003787</longitude><latitude>36.98715413</latitude><altitude>950</altitude><heading>320.0</heading><tilt>64.59</tilt><roll>0</roll><altitudeMode>relativeToGround</altitudeMode></Camera>
        </gx:FlyTo>
        <gx:FlyTo>
          <gx:duration>0.6</gx:duration><gx:flyToMode>smooth</gx:flyToMode>
          <Camera><longitude>127.20682596</longitude><latitude>36.98535819</latitude><altitude>950</altitude><heading>330.0</heading><tilt>64.59</tilt><roll>0</roll><altitudeMode>relativeToGround</altitudeMode></Camera>
        </gx:FlyTo>
        <gx:FlyTo>
          <gx:duration>0.6</gx:duration><gx:flyToMode>smooth</gx:flyToMode>
          <Camera><longitude>127.20327256</longitude><latitude>36.98403495</latitude><altitude>950</altitude><heading>340.0</heading><tilt>64.59</tilt><roll>0</roll><altitudeMode>relativeToGround</altitudeMode></Camera>
        </gx:FlyTo>
        <gx:FlyTo>
          <gx:duration>0.6</gx:duration><gx:flyToMode>smooth</gx:flyToMode>
          <Camera><longitude>127.19948557</longitude><latitude>36.98322458</latitude><altitude>950</altitude><heading>350.0</heading><tilt>64.59</tilt><roll>0</roll><altitudeMode>relativeToGround</altitudeMode></Camera>
        </gx:FlyTo>
        <gx:FlyTo>
          <gx:duration>0.6</gx:duration><gx:flyToMode>smooth</gx:flyToMode>
          <Camera><longitude>127.19558000</longitude><latitude>36.98295169</latitude><altitude>950</altitude><heading>0.0</heading><tilt>64.59</tilt><roll>0</roll><altitudeMode>relativeToGround</altitudeMode></Camera>
        </gx:FlyTo>
        <gx:FlyTo>
          <gx:duration>0.6</gx:duration><gx:flyToMode>smooth</gx:flyToMode>
          <Camera><longitude>127.19167443</longitude><latitude>36.98322458</latitude><altitude>950</altitude><heading>10.0</heading><tilt>64.59</tilt><roll>0</roll><altitudeMode>relativeToGround</altitudeMode></Camera>
        </gx:FlyTo>
        <gx:FlyTo>
          <gx:duration>0.6</gx:duration><gx:flyToMode>smooth</gx:flyToMode>
          <Camera><longitude>127.18788744</longitude><latitude>36.98403495</latitude><altitude>950</altitude><heading>20.0</heading><tilt>64.59</tilt><roll>0</roll><altitudeMode>relativeToGround</altitudeMode></Camera>
        </gx:FlyTo>
        <gx:FlyTo>
          <gx:duration>0.6</gx:duration><gx:flyToMode>smooth</gx:flyToMode>
          <Camera><longitude>127.18433404</longitude><latitude>36.98535819</latitude><altitude>950</altitude><heading>30.0</heading><tilt>64.59</tilt><roll>0</roll><altitudeMode>relativeToGround</altitudeMode></Camera>
        </gx:FlyTo>
        <gx:FlyTo>
          <gx:duration>0.6</gx:duration><gx:flyToMode>smooth</gx:flyToMode>
          <Camera><longitude>127.18112213</longitude><latitude>36.98715413</latitude><altitude>950</altitude><heading>40.0</heading><tilt>64.59</tilt><roll>0</roll><altitudeMode>relativeToGround</altitudeMode></Camera>
        </gx:FlyTo>
        <gx:FlyTo>
          <gx:duration>0.6</gx:duration><gx:flyToMode>smooth</gx:flyToMode>
          <Camera><longitude>127.17834928</longitude><latitude>36.98936824</latitude><altitude>950</altitude><heading>50.0</heading><tilt>64.59</tilt><roll>0</roll><altitudeMode>relativeToGround</altitudeMode></Camera>
        </gx:FlyTo>
        <gx:FlyTo>
          <gx:duration>0.6</gx:duration><gx:flyToMode>smooth</gx:flyToMode>
          <Camera><longitude>127.17609974</longitude><latitude>36.99193326</latitude><altitude>950</altitude><heading>60.0</heading><tilt>64.59</tilt><roll>0</roll><altitudeMode>relativeToGround</altitudeMode></Camera>
        </gx:FlyTo>
        <gx:FlyTo>
          <gx:duration>0.6</gx:duration><gx:flyToMode>smooth</gx:flyToMode>
          <Camera><longitude>127.17444189</longitude><latitude>36.99477129</latitude><altitude>950</altitude><heading>70.0</heading><tilt>64.59</tilt><roll>0</roll><altitudeMode>relativeToGround</altitudeMode></Camera>
        </gx:FlyTo>
        <gx:FlyTo>
          <gx:duration>0.6</gx:duration><gx:flyToMode>smooth</gx:flyToMode>
          <Camera><longitude>127.17342616</longitude><latitude>36.99779613</latitude><altitude>950</altitude><heading>80.0</heading><tilt>64.59</tilt><roll>0</roll><altitudeMode>relativeToGround</altitudeMode></Camera>
        </gx:FlyTo>
        <gx:FlyTo>
          <gx:duration>0.6</gx:duration><gx:flyToMode>smooth</gx:flyToMode>
          <Camera><longitude>127.17308348</longitude><latitude>37.00091588</latitude><altitude>950</altitude><heading>90.0</heading><tilt>64.59</tilt><roll>0</roll><altitudeMode>relativeToGround</altitudeMode></Camera>
        </gx:FlyTo>
        <gx:FlyTo>
          <gx:duration>0.6</gx:duration><gx:flyToMode>smooth</gx:flyToMode>
          <Camera><longitude>127.17342434</longitude><latitude>37.00403576</latitude><altitude>950</altitude><heading>100.0</heading><tilt>64.59</tilt><roll>0</roll><altitudeMode>relativeToGround</altitudeMode></Camera>
        </gx:FlyTo>
        <gx:FlyTo>
          <gx:duration>0.6</gx:duration><gx:flyToMode>smooth</gx:flyToMode>
          <Camera><longitude>127.17443847</longitude><latitude>37.00706096</latitude><altitude>950</altitude><heading>110.0</heading><tilt>64.59</tilt><roll>0</roll><altitudeMode>relativeToGround</altitudeMode></Camera>
        </gx:FlyTo>
        <gx:FlyTo>
          <gx:duration>0.6</gx:duration><gx:flyToMode>smooth</gx:flyToMode>
          <Camera><longitude>127.17609514</longitude><latitude>37.00989956</latitude><altitude>950</altitude><heading>120.0</heading><tilt>64.59</tilt><roll>0</roll><altitudeMode>relativeToGround</altitudeMode></Camera>
        </gx:FlyTo>
        <gx:FlyTo>
          <gx:duration>0.6</gx:duration><gx:flyToMode>smooth</gx:flyToMode>
          <Camera><longitude>127.17834405</longitude><latitude>37.01246527</latitude><altitude>950</altitude><heading>130.0</heading><tilt>64.59</tilt><roll>0</roll><altitudeMode>relativeToGround</altitudeMode></Camera>
        </gx:FlyTo>
        <gx:FlyTo>
          <gx:duration>0.6</gx:duration><gx:flyToMode>smooth</gx:flyToMode>
          <Camera><longitude>127.18111690</longitude><latitude>37.01468011</latitude><altitude>950</altitude><heading>140.0</heading><tilt>64.59</tilt><roll>0</roll><altitudeMode>relativeToGround</altitudeMode></Camera>
        </gx:FlyTo>
        <gx:FlyTo>
          <gx:duration>0.6</gx:duration><gx:flyToMode>smooth</gx:flyToMode>
          <Camera><longitude>127.18432944</longitude><latitude>37.01647675</latitude><altitude>950</altitude><heading>150.0</heading><tilt>64.59</tilt><roll>0</roll><altitudeMode>relativeToGround</altitudeMode></Camera>
        </gx:FlyTo>
        <gx:FlyTo>
          <gx:duration>0.6</gx:duration><gx:flyToMode>smooth</gx:flyToMode>
          <Camera><longitude>127.18788403</longitude><latitude>37.01780056</latitude><altitude>950</altitude><heading>160.0</heading><tilt>64.59</tilt><roll>0</roll><altitudeMode>relativeToGround</altitudeMode></Camera>
        </gx:FlyTo>
        <gx:FlyTo>
          <gx:duration>0.6</gx:duration><gx:flyToMode>smooth</gx:flyToMode>
          <Camera><longitude>127.19167261</longitude><latitude>37.01861129</latitude><altitude>950</altitude><heading>170.0</heading><tilt>64.59</tilt><roll>0</roll><altitudeMode>relativeToGround</altitudeMode></Camera>
        </gx:FlyTo>
        <gx:FlyTo>
          <gx:duration>0.6</gx:duration><gx:flyToMode>smooth</gx:flyToMode>
          <Camera><longitude>127.19558000</longitude><latitude>37.01888431</latitude><altitude>950</altitude><heading>180.0</heading><tilt>64.59</tilt><roll>0</roll><altitudeMode>relativeToGround</altitudeMode></Camera>
        </gx:FlyTo>
        <gx:Wait><gx:duration>1.0</gx:duration></gx:Wait>
        <gx:FlyTo>
          <gx:duration>3.0</gx:duration><gx:flyToMode>smooth</gx:flyToMode>
          <Camera><longitude>127.19558000</longitude><latitude>37.00990115</latitude><altitude>550</altitude><heading>180.0</heading><tilt>61.19</tilt><roll>0</roll><altitudeMode>relativeToGround</altitudeMode></Camera>
        </gx:FlyTo>
        <gx:FlyTo>
          <gx:duration>0.6</gx:duration><gx:flyToMode>smooth</gx:flyToMode>
          <Camera><longitude>127.19753347</longitude><latitude>37.00976466</latitude><altitude>550</altitude><heading>190.0</heading><tilt>61.19</tilt><roll>0</roll><altitudeMode>relativeToGround</altitudeMode></Camera>
        </gx:FlyTo>
        <gx:FlyTo>
          <gx:duration>0.6</gx:duration><gx:flyToMode>smooth</gx:flyToMode>
          <Camera><longitude>127.19942756</longitude><latitude>37.00935934</latitude><altitude>550</altitude><heading>200.0</heading><tilt>61.19</tilt><roll>0</roll><altitudeMode>relativeToGround</altitudeMode></Camera>
        </gx:FlyTo>
        <gx:FlyTo>
          <gx:duration>0.6</gx:duration><gx:flyToMode>smooth</gx:flyToMode>
          <Camera><longitude>127.20120471</longitude><latitude>37.00869751</latitude><altitude>550</altitude><heading>210.0</heading><tilt>61.19</tilt><roll>0</roll><altitudeMode>relativeToGround</altitudeMode></Camera>
        </gx:FlyTo>
        <gx:FlyTo>
          <gx:duration>0.6</gx:duration><gx:flyToMode>smooth</gx:flyToMode>
          <Camera><longitude>127.20281090</longitude><latitude>37.00779928</latitude><altitude>550</altitude><heading>220.0</heading><tilt>61.19</tilt><roll>0</roll><altitudeMode>relativeToGround</altitudeMode></Camera>
        </gx:FlyTo>
        <gx:FlyTo>
          <gx:duration>0.6</gx:duration><gx:flyToMode>smooth</gx:flyToMode>
          <Camera><longitude>127.20419732</longitude><latitude>37.00669195</latitude><altitude>550</altitude><heading>230.0</heading><tilt>61.19</tilt><roll>0</roll><altitudeMode>relativeToGround</altitudeMode></Camera>
        </gx:FlyTo>
        <gx:FlyTo>
          <gx:duration>0.6</gx:duration><gx:flyToMode>smooth</gx:flyToMode>
          <Camera><longitude>127.20532186</longitude><latitude>37.00540918</latitude><altitude>550</altitude><heading>240.0</heading><tilt>61.19</tilt><roll>0</roll><altitudeMode>relativeToGround</altitudeMode></Camera>
        </gx:FlyTo>
        <gx:FlyTo>
          <gx:duration>0.6</gx:duration><gx:flyToMode>smooth</gx:flyToMode>
          <Camera><longitude>127.20615034</longitude><latitude>37.00398995</latitude><altitude>550</altitude><heading>250.0</heading><tilt>61.19</tilt><roll>0</roll><altitudeMode>relativeToGround</altitudeMode></Camera>
        </gx:FlyTo>
        <gx:FlyTo>
          <gx:duration>0.6</gx:duration><gx:flyToMode>smooth</gx:flyToMode>
          <Camera><longitude>127.20665760</longitude><latitude>37.00247739</latitude><altitude>550</altitude><heading>260.0</heading><tilt>61.19</tilt><roll>0</roll><altitudeMode>relativeToGround</altitudeMode></Camera>
        </gx:FlyTo>
        <gx:FlyTo>
          <gx:duration>0.6</gx:duration><gx:flyToMode>smooth</gx:flyToMode>
          <Camera><longitude>127.20682826</longitude><latitude>37.00091747</latitude><altitude>550</altitude><heading>270.0</heading><tilt>61.19</tilt><roll>0</roll><altitudeMode>relativeToGround</altitudeMode></Camera>
        </gx:FlyTo>
        <gx:FlyTo>
          <gx:duration>0.6</gx:duration><gx:flyToMode>smooth</gx:flyToMode>
          <Camera><longitude>127.20665715</longitude><latitude>36.99935758</latitude><altitude>550</altitude><heading>280.0</heading><tilt>61.19</tilt><roll>0</roll><altitudeMode>relativeToGround</altitudeMode></Camera>
        </gx:FlyTo>
        <gx:FlyTo>
          <gx:duration>0.6</gx:duration><gx:flyToMode>smooth</gx:flyToMode>
          <Camera><longitude>127.20614948</longitude><latitude>36.99784511</latitude><altitude>550</altitude><heading>290.0</heading><tilt>61.19</tilt><roll>0</roll><altitudeMode>relativeToGround</altitudeMode></Camera>
        </gx:FlyTo>
        <gx:FlyTo>
          <gx:duration>0.6</gx:duration><gx:flyToMode>smooth</gx:flyToMode>
          <Camera><longitude>127.20532071</longitude><latitude>36.99642603</latitude><altitude>550</altitude><heading>300.0</heading><tilt>61.19</tilt><roll>0</roll><altitudeMode>relativeToGround</altitudeMode></Camera>
        </gx:FlyTo>
        <gx:FlyTo>
          <gx:duration>0.6</gx:duration><gx:flyToMode>smooth</gx:flyToMode>
          <Camera><longitude>127.20419601</longitude><latitude>36.99514343</latitude><altitude>550</altitude><heading>310.0</heading><tilt>61.19</tilt><roll>0</roll><altitudeMode>relativeToGround</altitudeMode></Camera>
        </gx:FlyTo>
        <gx:FlyTo>
          <gx:duration>0.6</gx:duration><gx:flyToMode>smooth</gx:flyToMode>
          <Camera><longitude>127.20280959</longitude><latitude>36.99403629</latitude><altitude>550</altitude><heading>320.0</heading><tilt>61.19</tilt><roll>0</roll><altitudeMode>relativeToGround</altitudeMode></Camera>
        </gx:FlyTo>
        <gx:FlyTo>
          <gx:duration>0.6</gx:duration><gx:flyToMode>smooth</gx:flyToMode>
          <Camera><longitude>127.20120356</longitude><latitude>36.99313823</latitude><altitude>550</altitude><heading>330.0</heading><tilt>61.19</tilt><roll>0</roll><altitudeMode>relativeToGround</altitudeMode></Camera>
        </gx:FlyTo>
        <gx:FlyTo>
          <gx:duration>0.6</gx:duration><gx:flyToMode>smooth</gx:flyToMode>
          <Camera><longitude>127.19942671</longitude><latitude>36.99247654</latitude><altitude>550</altitude><heading>340.0</heading><tilt>61.19</tilt><roll>0</roll><altitudeMode>relativeToGround</altitudeMode></Camera>
        </gx:FlyTo>
        <gx:FlyTo>
          <gx:duration>0.6</gx:duration><gx:flyToMode>smooth</gx:flyToMode>
          <Camera><longitude>127.19753301</longitude><latitude>36.99207131</latitude><altitude>550</altitude><heading>350.0</heading><tilt>61.19</tilt><roll>0</roll><altitudeMode>relativeToGround</altitudeMode></Camera>
        </gx:FlyTo>
        <gx:FlyTo>
          <gx:duration>0.6</gx:duration><gx:flyToMode>smooth</gx:flyToMode>
          <Camera><longitude>127.19558000</longitude><latitude>36.99193485</latitude><altitude>550</altitude><heading>0.0</heading><tilt>61.19</tilt><roll>0</roll><altitudeMode>relativeToGround</altitudeMode></Camera>
        </gx:FlyTo>
        <gx:FlyTo>
          <gx:duration>0.6</gx:duration><gx:flyToMode>smooth</gx:flyToMode>
          <Camera><longitude>127.19362699</longitude><latitude>36.99207131</latitude><altitude>550</altitude><heading>10.0</heading><tilt>61.19</tilt><roll>0</roll><altitudeMode>relativeToGround</altitudeMode></Camera>
        </gx:FlyTo>
        <gx:FlyTo>
          <gx:duration>0.6</gx:duration><gx:flyToMode>smooth</gx:flyToMode>
          <Camera><longitude>127.19173329</longitude><latitude>36.99247654</latitude><altitude>550</altitude><heading>20.0</heading><tilt>61.19</tilt><roll>0</roll><altitudeMode>relativeToGround</altitudeMode></Camera>
        </gx:FlyTo>
        <gx:FlyTo>
          <gx:duration>0.6</gx:duration><gx:flyToMode>smooth</gx:flyToMode>
          <Camera><longitude>127.18995644</longitude><latitude>36.99313823</latitude><altitude>550</altitude><heading>30.0</heading><tilt>61.19</tilt><roll>0</roll><altitudeMode>relativeToGround</altitudeMode></Camera>
        </gx:FlyTo>
        <gx:FlyTo>
          <gx:duration>0.6</gx:duration><gx:flyToMode>smooth</gx:flyToMode>
          <Camera><longitude>127.18835041</longitude><latitude>36.99403629</latitude><altitude>550</altitude><heading>40.0</heading><tilt>61.19</tilt><roll>0</roll><altitudeMode>relativeToGround</altitudeMode></Camera>
        </gx:FlyTo>
        <gx:FlyTo>
          <gx:duration>0.6</gx:duration><gx:flyToMode>smooth</gx:flyToMode>
          <Camera><longitude>127.18696399</longitude><latitude>36.99514343</latitude><altitude>550</altitude><heading>50.0</heading><tilt>61.19</tilt><roll>0</roll><altitudeMode>relativeToGround</altitudeMode></Camera>
        </gx:FlyTo>
        <gx:FlyTo>
          <gx:duration>0.6</gx:duration><gx:flyToMode>smooth</gx:flyToMode>
          <Camera><longitude>127.18583929</longitude><latitude>36.99642603</latitude><altitude>550</altitude><heading>60.0</heading><tilt>61.19</tilt><roll>0</roll><altitudeMode>relativeToGround</altitudeMode></Camera>
        </gx:FlyTo>
        <gx:FlyTo>
          <gx:duration>0.6</gx:duration><gx:flyToMode>smooth</gx:flyToMode>
          <Camera><longitude>127.18501052</longitude><latitude>36.99784511</latitude><altitude>550</altitude><heading>70.0</heading><tilt>61.19</tilt><roll>0</roll><altitudeMode>relativeToGround</altitudeMode></Camera>
        </gx:FlyTo>
        <gx:FlyTo>
          <gx:duration>0.6</gx:duration><gx:flyToMode>smooth</gx:flyToMode>
          <Camera><longitude>127.18450285</longitude><latitude>36.99935758</latitude><altitude>550</altitude><heading>80.0</heading><tilt>61.19</tilt><roll>0</roll><altitudeMode>relativeToGround</altitudeMode></Camera>
        </gx:FlyTo>
        <gx:FlyTo>
          <gx:duration>0.6</gx:duration><gx:flyToMode>smooth</gx:flyToMode>
          <Camera><longitude>127.18433174</longitude><latitude>37.00091747</latitude><altitude>550</altitude><heading>90.0</heading><tilt>61.19</tilt><roll>0</roll><altitudeMode>relativeToGround</altitudeMode></Camera>
        </gx:FlyTo>
        <gx:FlyTo>
          <gx:duration>0.6</gx:duration><gx:flyToMode>smooth</gx:flyToMode>
          <Camera><longitude>127.18450240</longitude><latitude>37.00247739</latitude><altitude>550</altitude><heading>100.0</heading><tilt>61.19</tilt><roll>0</roll><altitudeMode>relativeToGround</altitudeMode></Camera>
        </gx:FlyTo>
        <gx:FlyTo>
          <gx:duration>0.6</gx:duration><gx:flyToMode>smooth</gx:flyToMode>
          <Camera><longitude>127.18500966</longitude><latitude>37.00398995</latitude><altitude>550</altitude><heading>110.0</heading><tilt>61.19</tilt><roll>0</roll><altitudeMode>relativeToGround</altitudeMode></Camera>
        </gx:FlyTo>
        <gx:FlyTo>
          <gx:duration>0.6</gx:duration><gx:flyToMode>smooth</gx:flyToMode>
          <Camera><longitude>127.18583814</longitude><latitude>37.00540918</latitude><altitude>550</altitude><heading>120.0</heading><tilt>61.19</tilt><roll>0</roll><altitudeMode>relativeToGround</altitudeMode></Camera>
        </gx:FlyTo>
        <gx:FlyTo>
          <gx:duration>0.6</gx:duration><gx:flyToMode>smooth</gx:flyToMode>
          <Camera><longitude>127.18696268</longitude><latitude>37.00669195</latitude><altitude>550</altitude><heading>130.0</heading><tilt>61.19</tilt><roll>0</roll><altitudeMode>relativeToGround</altitudeMode></Camera>
        </gx:FlyTo>
        <gx:FlyTo>
          <gx:duration>0.6</gx:duration><gx:flyToMode>smooth</gx:flyToMode>
          <Camera><longitude>127.18834910</longitude><latitude>37.00779928</latitude><altitude>550</altitude><heading>140.0</heading><tilt>61.19</tilt><roll>0</roll><altitudeMode>relativeToGround</altitudeMode></Camera>
        </gx:FlyTo>
        <gx:FlyTo>
          <gx:duration>0.6</gx:duration><gx:flyToMode>smooth</gx:flyToMode>
          <Camera><longitude>127.18995529</longitude><latitude>37.00869751</latitude><altitude>550</altitude><heading>150.0</heading><tilt>61.19</tilt><roll>0</roll><altitudeMode>relativeToGround</altitudeMode></Camera>
        </gx:FlyTo>
        <gx:FlyTo>
          <gx:duration>0.6</gx:duration><gx:flyToMode>smooth</gx:flyToMode>
          <Camera><longitude>127.19173244</longitude><latitude>37.00935934</latitude><altitude>550</altitude><heading>160.0</heading><tilt>61.19</tilt><roll>0</roll><altitudeMode>relativeToGround</altitudeMode></Camera>
        </gx:FlyTo>
        <gx:FlyTo>
          <gx:duration>0.6</gx:duration><gx:flyToMode>smooth</gx:flyToMode>
          <Camera><longitude>127.19362653</longitude><latitude>37.00976466</latitude><altitude>550</altitude><heading>170.0</heading><tilt>61.19</tilt><roll>0</roll><altitudeMode>relativeToGround</altitudeMode></Camera>
        </gx:FlyTo>
        <gx:FlyTo>
          <gx:duration>0.6</gx:duration><gx:flyToMode>smooth</gx:flyToMode>
          <Camera><longitude>127.19558000</longitude><latitude>37.00990115</latitude><altitude>550</altitude><heading>180.0</heading><tilt>61.19</tilt><roll>0</roll><altitudeMode>relativeToGround</altitudeMode></Camera>
        </gx:FlyTo>
        <gx:Wait><gx:duration>1.0</gx:duration></gx:Wait>
        <gx:FlyTo>
          <gx:duration>3.0</gx:duration><gx:flyToMode>smooth</gx:flyToMode>
          <Camera><longitude>127.19558000</longitude><latitude>37.00540958</latitude><altitude>300</altitude><heading>180.0</heading><tilt>59.04</tilt><roll>0</roll><altitudeMode>relativeToGround</altitudeMode></Camera>
        </gx:FlyTo>
        <gx:FlyTo>
          <gx:duration>0.6</gx:duration><gx:flyToMode>smooth</gx:flyToMode>
          <Camera><longitude>127.19655668</longitude><latitude>37.00534134</latitude><altitude>300</altitude><heading>190.0</heading><tilt>59.04</tilt><roll>0</roll><altitudeMode>relativeToGround</altitudeMode></Camera>
        </gx:FlyTo>
        <gx:FlyTo>
          <gx:duration>0.6</gx:duration><gx:flyToMode>smooth</gx:flyToMode>
          <Camera><longitude>127.19750367</longitude><latitude>37.00513869</latitude><altitude>300</altitude><heading>200.0</heading><tilt>59.04</tilt><roll>0</roll><altitudeMode>relativeToGround</altitudeMode></Camera>
        </gx:FlyTo>
        <gx:FlyTo>
          <gx:duration>0.6</gx:duration><gx:flyToMode>smooth</gx:flyToMode>
          <Camera><longitude>127.19839221</longitude><latitude>37.00480779</latitude><altitude>300</altitude><heading>210.0</heading><tilt>59.04</tilt><roll>0</roll><altitudeMode>relativeToGround</altitudeMode></Camera>
        </gx:FlyTo>
        <gx:FlyTo>
          <gx:duration>0.6</gx:duration><gx:flyToMode>smooth</gx:flyToMode>
          <Camera><longitude>127.19919529</longitude><latitude>37.00435869</latitude><altitude>300</altitude><heading>220.0</heading><tilt>59.04</tilt><roll>0</roll><altitudeMode>relativeToGround</altitudeMode></Camera>
        </gx:FlyTo>
        <gx:FlyTo>
          <gx:duration>0.6</gx:duration><gx:flyToMode>smooth</gx:flyToMode>
          <Camera><longitude>127.19988850</longitude><latitude>37.00380505</latitude><altitude>300</altitude><heading>230.0</heading><tilt>59.04</tilt><roll>0</roll><altitudeMode>relativeToGround</altitudeMode></Camera>
        </gx:FlyTo>
        <gx:FlyTo>
          <gx:duration>0.6</gx:duration><gx:flyToMode>smooth</gx:flyToMode>
          <Camera><longitude>127.20045078</longitude><latitude>37.00316369</latitude><altitude>300</altitude><heading>240.0</heading><tilt>59.04</tilt><roll>0</roll><altitudeMode>relativeToGround</altitudeMode></Camera>
        </gx:FlyTo>
        <gx:FlyTo>
          <gx:duration>0.6</gx:duration><gx:flyToMode>smooth</gx:flyToMode>
          <Camera><longitude>127.20086506</longitude><latitude>37.00245409</latitude><altitude>300</altitude><heading>250.0</heading><tilt>59.04</tilt><roll>0</roll><altitudeMode>relativeToGround</altitudeMode></Camera>
        </gx:FlyTo>
        <gx:FlyTo>
          <gx:duration>0.6</gx:duration><gx:flyToMode>smooth</gx:flyToMode>
          <Camera><longitude>127.20111874</longitude><latitude>37.00169783</latitude><altitude>300</altitude><heading>260.0</heading><tilt>59.04</tilt><roll>0</roll><altitudeMode>relativeToGround</altitudeMode></Camera>
        </gx:FlyTo>
        <gx:FlyTo>
          <gx:duration>0.6</gx:duration><gx:flyToMode>smooth</gx:flyToMode>
          <Camera><longitude>127.20120413</longitude><latitude>37.00091787</latitude><altitude>300</altitude><heading>270.0</heading><tilt>59.04</tilt><roll>0</roll><altitudeMode>relativeToGround</altitudeMode></Camera>
        </gx:FlyTo>
        <gx:FlyTo>
          <gx:duration>0.6</gx:duration><gx:flyToMode>smooth</gx:flyToMode>
          <Camera><longitude>127.20111863</longitude><latitude>37.00013792</latitude><altitude>300</altitude><heading>280.0</heading><tilt>59.04</tilt><roll>0</roll><altitudeMode>relativeToGround</altitudeMode></Camera>
        </gx:FlyTo>
        <gx:FlyTo>
          <gx:duration>0.6</gx:duration><gx:flyToMode>smooth</gx:flyToMode>
          <Camera><longitude>127.20086485</longitude><latitude>36.99938167</latitude><altitude>300</altitude><heading>290.0</heading><tilt>59.04</tilt><roll>0</roll><altitudeMode>relativeToGround</altitudeMode></Camera>
        </gx:FlyTo>
        <gx:FlyTo>
          <gx:duration>0.6</gx:duration><gx:flyToMode>smooth</gx:flyToMode>
          <Camera><longitude>127.20045050</longitude><latitude>36.99867211</latitude><altitude>300</altitude><heading>300.0</heading><tilt>59.04</tilt><roll>0</roll><altitudeMode>relativeToGround</altitudeMode></Camera>
        </gx:FlyTo>
        <gx:FlyTo>
          <gx:duration>0.6</gx:duration><gx:flyToMode>smooth</gx:flyToMode>
          <Camera><longitude>127.19988817</longitude><latitude>36.99803079</latitude><altitude>300</altitude><heading>310.0</heading><tilt>59.04</tilt><roll>0</roll><altitudeMode>relativeToGround</altitudeMode></Camera>
        </gx:FlyTo>
        <gx:FlyTo>
          <gx:duration>0.6</gx:duration><gx:flyToMode>smooth</gx:flyToMode>
          <Camera><longitude>127.19919496</longitude><latitude>36.99747720</latitude><altitude>300</altitude><heading>320.0</heading><tilt>59.04</tilt><roll>0</roll><altitudeMode>relativeToGround</altitudeMode></Camera>
        </gx:FlyTo>
        <gx:FlyTo>
          <gx:duration>0.6</gx:duration><gx:flyToMode>smooth</gx:flyToMode>
          <Camera><longitude>127.19839192</longitude><latitude>36.99702815</latitude><altitude>300</altitude><heading>330.0</heading><tilt>59.04</tilt><roll>0</roll><altitudeMode>relativeToGround</altitudeMode></Camera>
        </gx:FlyTo>
        <gx:FlyTo>
          <gx:duration>0.6</gx:duration><gx:flyToMode>smooth</gx:flyToMode>
          <Camera><longitude>127.19750346</longitude><latitude>36.99669728</latitude><altitude>300</altitude><heading>340.0</heading><tilt>59.04</tilt><roll>0</roll><altitudeMode>relativeToGround</altitudeMode></Camera>
        </gx:FlyTo>
        <gx:FlyTo>
          <gx:duration>0.6</gx:duration><gx:flyToMode>smooth</gx:flyToMode>
          <Camera><longitude>127.19655656</longitude><latitude>36.99649466</latitude><altitude>300</altitude><heading>350.0</heading><tilt>59.04</tilt><roll>0</roll><altitudeMode>relativeToGround</altitudeMode></Camera>
        </gx:FlyTo>
        <gx:FlyTo>
          <gx:duration>0.6</gx:duration><gx:flyToMode>smooth</gx:flyToMode>
          <Camera><longitude>127.19558000</longitude><latitude>36.99642642</latitude><altitude>300</altitude><heading>0.0</heading><tilt>59.04</tilt><roll>0</roll><altitudeMode>relativeToGround</altitudeMode></Camera>
        </gx:FlyTo>
        <gx:FlyTo>
          <gx:duration>0.6</gx:duration><gx:flyToMode>smooth</gx:flyToMode>
          <Camera><longitude>127.19460344</longitude><latitude>36.99649466</latitude><altitude>300</altitude><heading>10.0</heading><tilt>59.04</tilt><roll>0</roll><altitudeMode>relativeToGround</altitudeMode></Camera>
        </gx:FlyTo>
        <gx:FlyTo>
          <gx:duration>0.6</gx:duration><gx:flyToMode>smooth</gx:flyToMode>
          <Camera><longitude>127.19365654</longitude><latitude>36.99669728</latitude><altitude>300</altitude><heading>20.0</heading><tilt>59.04</tilt><roll>0</roll><altitudeMode>relativeToGround</altitudeMode></Camera>
        </gx:FlyTo>
        <gx:FlyTo>
          <gx:duration>0.6</gx:duration><gx:flyToMode>smooth</gx:flyToMode>
          <Camera><longitude>127.19276808</longitude><latitude>36.99702815</latitude><altitude>300</altitude><heading>30.0</heading><tilt>59.04</tilt><roll>0</roll><altitudeMode>relativeToGround</altitudeMode></Camera>
        </gx:FlyTo>
        <gx:FlyTo>
          <gx:duration>0.6</gx:duration><gx:flyToMode>smooth</gx:flyToMode>
          <Camera><longitude>127.19196504</longitude><latitude>36.99747720</latitude><altitude>300</altitude><heading>40.0</heading><tilt>59.04</tilt><roll>0</roll><altitudeMode>relativeToGround</altitudeMode></Camera>
        </gx:FlyTo>
        <gx:FlyTo>
          <gx:duration>0.6</gx:duration><gx:flyToMode>smooth</gx:flyToMode>
          <Camera><longitude>127.19127183</longitude><latitude>36.99803079</latitude><altitude>300</altitude><heading>50.0</heading><tilt>59.04</tilt><roll>0</roll><altitudeMode>relativeToGround</altitudeMode></Camera>
        </gx:FlyTo>
        <gx:FlyTo>
          <gx:duration>0.6</gx:duration><gx:flyToMode>smooth</gx:flyToMode>
          <Camera><longitude>127.19070950</longitude><latitude>36.99867211</latitude><altitude>300</altitude><heading>60.0</heading><tilt>59.04</tilt><roll>0</roll><altitudeMode>relativeToGround</altitudeMode></Camera>
        </gx:FlyTo>
        <gx:FlyTo>
          <gx:duration>0.6</gx:duration><gx:flyToMode>smooth</gx:flyToMode>
          <Camera><longitude>127.19029515</longitude><latitude>36.99938167</latitude><altitude>300</altitude><heading>70.0</heading><tilt>59.04</tilt><roll>0</roll><altitudeMode>relativeToGround</altitudeMode></Camera>
        </gx:FlyTo>
        <gx:FlyTo>
          <gx:duration>0.6</gx:duration><gx:flyToMode>smooth</gx:flyToMode>
          <Camera><longitude>127.19004137</longitude><latitude>37.00013792</latitude><altitude>300</altitude><heading>80.0</heading><tilt>59.04</tilt><roll>0</roll><altitudeMode>relativeToGround</altitudeMode></Camera>
        </gx:FlyTo>
        <gx:FlyTo>
          <gx:duration>0.6</gx:duration><gx:flyToMode>smooth</gx:flyToMode>
          <Camera><longitude>127.18995587</longitude><latitude>37.00091787</latitude><altitude>300</altitude><heading>90.0</heading><tilt>59.04</tilt><roll>0</roll><altitudeMode>relativeToGround</altitudeMode></Camera>
        </gx:FlyTo>
        <gx:FlyTo>
          <gx:duration>0.6</gx:duration><gx:flyToMode>smooth</gx:flyToMode>
          <Camera><longitude>127.19004126</longitude><latitude>37.00169783</latitude><altitude>300</altitude><heading>100.0</heading><tilt>59.04</tilt><roll>0</roll><altitudeMode>relativeToGround</altitudeMode></Camera>
        </gx:FlyTo>
        <gx:FlyTo>
          <gx:duration>0.6</gx:duration><gx:flyToMode>smooth</gx:flyToMode>
          <Camera><longitude>127.19029494</longitude><latitude>37.00245409</latitude><altitude>300</altitude><heading>110.0</heading><tilt>59.04</tilt><roll>0</roll><altitudeMode>relativeToGround</altitudeMode></Camera>
        </gx:FlyTo>
        <gx:FlyTo>
          <gx:duration>0.6</gx:duration><gx:flyToMode>smooth</gx:flyToMode>
          <Camera><longitude>127.19070922</longitude><latitude>37.00316369</latitude><altitude>300</altitude><heading>120.0</heading><tilt>59.04</tilt><roll>0</roll><altitudeMode>relativeToGround</altitudeMode></Camera>
        </gx:FlyTo>
        <gx:FlyTo>
          <gx:duration>0.6</gx:duration><gx:flyToMode>smooth</gx:flyToMode>
          <Camera><longitude>127.19127150</longitude><latitude>37.00380505</latitude><altitude>300</altitude><heading>130.0</heading><tilt>59.04</tilt><roll>0</roll><altitudeMode>relativeToGround</altitudeMode></Camera>
        </gx:FlyTo>
        <gx:FlyTo>
          <gx:duration>0.6</gx:duration><gx:flyToMode>smooth</gx:flyToMode>
          <Camera><longitude>127.19196471</longitude><latitude>37.00435869</latitude><altitude>300</altitude><heading>140.0</heading><tilt>59.04</tilt><roll>0</roll><altitudeMode>relativeToGround</altitudeMode></Camera>
        </gx:FlyTo>
        <gx:FlyTo>
          <gx:duration>0.6</gx:duration><gx:flyToMode>smooth</gx:flyToMode>
          <Camera><longitude>127.19276779</longitude><latitude>37.00480779</latitude><altitude>300</altitude><heading>150.0</heading><tilt>59.04</tilt><roll>0</roll><altitudeMode>relativeToGround</altitudeMode></Camera>
        </gx:FlyTo>
        <gx:FlyTo>
          <gx:duration>0.6</gx:duration><gx:flyToMode>smooth</gx:flyToMode>
          <Camera><longitude>127.19365633</longitude><latitude>37.00513869</latitude><altitude>300</altitude><heading>160.0</heading><tilt>59.04</tilt><roll>0</roll><altitudeMode>relativeToGround</altitudeMode></Camera>
        </gx:FlyTo>
        <gx:FlyTo>
          <gx:duration>0.6</gx:duration><gx:flyToMode>smooth</gx:flyToMode>
          <Camera><longitude>127.19460332</longitude><latitude>37.00534134</latitude><altitude>300</altitude><heading>170.0</heading><tilt>59.04</tilt><roll>0</roll><altitudeMode>relativeToGround</altitudeMode></Camera>
        </gx:FlyTo>
        <gx:FlyTo>
          <gx:duration>0.6</gx:duration><gx:flyToMode>smooth</gx:flyToMode>
          <Camera><longitude>127.19558000</longitude><latitude>37.00540958</latitude><altitude>300</altitude><heading>180.0</heading><tilt>59.04</tilt><roll>0</roll><altitudeMode>relativeToGround</altitudeMode></Camera>
        </gx:FlyTo>
        <gx:Wait><gx:duration>1.0</gx:duration></gx:Wait>
        <gx:FlyTo>
          <gx:duration>3.0</gx:duration><gx:flyToMode>smooth</gx:flyToMode>
          <Camera><longitude>127.19558000</longitude><latitude>37.00361295</latitude><altitude>190</altitude><heading>180.0</heading><tilt>57.65</tilt><roll>0</roll><altitudeMode>relativeToGround</altitudeMode></Camera>
        </gx:FlyTo>
        <gx:FlyTo>
          <gx:duration>0.6</gx:duration><gx:flyToMode>smooth</gx:flyToMode>
          <Camera><longitude>127.19616599</longitude><latitude>37.00357200</latitude><altitude>190</altitude><heading>190.0</heading><tilt>57.65</tilt><roll>0</roll><altitudeMode>relativeToGround</altitudeMode></Camera>
        </gx:FlyTo>
        <gx:FlyTo>
          <gx:duration>0.6</gx:duration><gx:flyToMode>smooth</gx:flyToMode>
          <Camera><longitude>127.19673418</longitude><latitude>37.00345042</latitude><altitude>190</altitude><heading>200.0</heading><tilt>57.65</tilt><roll>0</roll><altitudeMode>relativeToGround</altitudeMode></Camera>
        </gx:FlyTo>
        <gx:FlyTo>
          <gx:duration>0.6</gx:duration><gx:flyToMode>smooth</gx:flyToMode>
          <Camera><longitude>127.19726729</longitude><latitude>37.00325188</latitude><altitude>190</altitude><heading>210.0</heading><tilt>57.65</tilt><roll>0</roll><altitudeMode>relativeToGround</altitudeMode></Camera>
        </gx:FlyTo>
        <gx:FlyTo>
          <gx:duration>0.6</gx:duration><gx:flyToMode>smooth</gx:flyToMode>
          <Camera><longitude>127.19774913</longitude><latitude>37.00298243</latitude><altitude>190</altitude><heading>220.0</heading><tilt>57.65</tilt><roll>0</roll><altitudeMode>relativeToGround</altitudeMode></Camera>
        </gx:FlyTo>
        <gx:FlyTo>
          <gx:duration>0.6</gx:duration><gx:flyToMode>smooth</gx:flyToMode>
          <Camera><longitude>127.19816506</longitude><latitude>37.00265025</latitude><altitude>190</altitude><heading>230.0</heading><tilt>57.65</tilt><roll>0</roll><altitudeMode>relativeToGround</altitudeMode></Camera>
        </gx:FlyTo>
        <gx:FlyTo>
          <gx:duration>0.6</gx:duration><gx:flyToMode>smooth</gx:flyToMode>
          <Camera><longitude>127.19850244</longitude><latitude>37.00226544</latitude><altitude>190</altitude><heading>240.0</heading><tilt>57.65</tilt><roll>0</roll><altitudeMode>relativeToGround</altitudeMode></Camera>
        </gx:FlyTo>
        <gx:FlyTo>
          <gx:duration>0.6</gx:duration><gx:flyToMode>smooth</gx:flyToMode>
          <Camera><longitude>127.19875101</longitude><latitude>37.00183968</latitude><altitude>190</altitude><heading>250.0</heading><tilt>57.65</tilt><roll>0</roll><altitudeMode>relativeToGround</altitudeMode></Camera>
        </gx:FlyTo>
        <gx:FlyTo>
          <gx:duration>0.6</gx:duration><gx:flyToMode>smooth</gx:flyToMode>
          <Camera><longitude>127.19890323</longitude><latitude>37.00138593</latitude><altitude>190</altitude><heading>260.0</heading><tilt>57.65</tilt><roll>0</roll><altitudeMode>relativeToGround</altitudeMode></Camera>
        </gx:FlyTo>
        <gx:FlyTo>
          <gx:duration>0.6</gx:duration><gx:flyToMode>smooth</gx:flyToMode>
          <Camera><longitude>127.19895448</longitude><latitude>37.00091795</latitude><altitude>190</altitude><heading>270.0</heading><tilt>57.65</tilt><roll>0</roll><altitudeMode>relativeToGround</altitudeMode></Camera>
        </gx:FlyTo>
        <gx:FlyTo>
          <gx:duration>0.6</gx:duration><gx:flyToMode>smooth</gx:flyToMode>
          <Camera><longitude>127.19890319</longitude><latitude>37.00044998</latitude><altitude>190</altitude><heading>280.0</heading><tilt>57.65</tilt><roll>0</roll><altitudeMode>relativeToGround</altitudeMode></Camera>
        </gx:FlyTo>
        <gx:FlyTo>
          <gx:duration>0.6</gx:duration><gx:flyToMode>smooth</gx:flyToMode>
          <Camera><longitude>127.19875093</longitude><latitude>36.99999623</latitude><altitude>190</altitude><heading>290.0</heading><tilt>57.65</tilt><roll>0</roll><altitudeMode>relativeToGround</altitudeMode></Camera>
        </gx:FlyTo>
        <gx:FlyTo>
          <gx:duration>0.6</gx:duration><gx:flyToMode>smooth</gx:flyToMode>
          <Camera><longitude>127.19850233</longitude><latitude>36.99957049</latitude><altitude>190</altitude><heading>300.0</heading><tilt>57.65</tilt><roll>0</roll><altitudeMode>relativeToGround</altitudeMode></Camera>
        </gx:FlyTo>
        <gx:FlyTo>
          <gx:duration>0.6</gx:duration><gx:flyToMode>smooth</gx:flyToMode>
          <Camera><longitude>127.19816494</longitude><latitude>36.99918569</latitude><altitude>190</altitude><heading>310.0</heading><tilt>57.65</tilt><roll>0</roll><altitudeMode>relativeToGround</altitudeMode></Camera>
        </gx:FlyTo>
        <gx:FlyTo>
          <gx:duration>0.6</gx:duration><gx:flyToMode>smooth</gx:flyToMode>
          <Camera><longitude>127.19774901</longitude><latitude>36.99885353</latitude><altitude>190</altitude><heading>320.0</heading><tilt>57.65</tilt><roll>0</roll><altitudeMode>relativeToGround</altitudeMode></Camera>
        </gx:FlyTo>
        <gx:FlyTo>
          <gx:duration>0.6</gx:duration><gx:flyToMode>smooth</gx:flyToMode>
          <Camera><longitude>127.19726719</longitude><latitude>36.99858410</latitude><altitude>190</altitude><heading>330.0</heading><tilt>57.65</tilt><roll>0</roll><altitudeMode>relativeToGround</altitudeMode></Camera>
        </gx:FlyTo>
        <gx:FlyTo>
          <gx:duration>0.6</gx:duration><gx:flyToMode>smooth</gx:flyToMode>
          <Camera><longitude>127.19673410</longitude><latitude>36.99838557</latitude><altitude>190</altitude><heading>340.0</heading><tilt>57.65</tilt><roll>0</roll><altitudeMode>relativeToGround</altitudeMode></Camera>
        </gx:FlyTo>
        <gx:FlyTo>
          <gx:duration>0.6</gx:duration><gx:flyToMode>smooth</gx:flyToMode>
          <Camera><longitude>127.19616595</longitude><latitude>36.99826399</latitude><altitude>190</altitude><heading>350.0</heading><tilt>57.65</tilt><roll>0</roll><altitudeMode>relativeToGround</altitudeMode></Camera>
        </gx:FlyTo>
        <gx:FlyTo>
          <gx:duration>0.6</gx:duration><gx:flyToMode>smooth</gx:flyToMode>
          <Camera><longitude>127.19558000</longitude><latitude>36.99822305</latitude><altitude>190</altitude><heading>0.0</heading><tilt>57.65</tilt><roll>0</roll><altitudeMode>relativeToGround</altitudeMode></Camera>
        </gx:FlyTo>
        <gx:FlyTo>
          <gx:duration>0.6</gx:duration><gx:flyToMode>smooth</gx:flyToMode>
          <Camera><longitude>127.19499405</longitude><latitude>36.99826399</latitude><altitude>190</altitude><heading>10.0</heading><tilt>57.65</tilt><roll>0</roll><altitudeMode>relativeToGround</altitudeMode></Camera>
        </gx:FlyTo>
        <gx:FlyTo>
          <gx:duration>0.6</gx:duration><gx:flyToMode>smooth</gx:flyToMode>
          <Camera><longitude>127.19442590</longitude><latitude>36.99838557</latitude><altitude>190</altitude><heading>20.0</heading><tilt>57.65</tilt><roll>0</roll><altitudeMode>relativeToGround</altitudeMode></Camera>
        </gx:FlyTo>
        <gx:FlyTo>
          <gx:duration>0.6</gx:duration><gx:flyToMode>smooth</gx:flyToMode>
          <Camera><longitude>127.19389281</longitude><latitude>36.99858410</latitude><altitude>190</altitude><heading>30.0</heading><tilt>57.65</tilt><roll>0</roll><altitudeMode>relativeToGround</altitudeMode></Camera>
        </gx:FlyTo>
        <gx:FlyTo>
          <gx:duration>0.6</gx:duration><gx:flyToMode>smooth</gx:flyToMode>
          <Camera><longitude>127.19341099</longitude><latitude>36.99885353</latitude><altitude>190</altitude><heading>40.0</heading><tilt>57.65</tilt><roll>0</roll><altitudeMode>relativeToGround</altitudeMode></Camera>
        </gx:FlyTo>
        <gx:FlyTo>
          <gx:duration>0.6</gx:duration><gx:flyToMode>smooth</gx:flyToMode>
          <Camera><longitude>127.19299506</longitude><latitude>36.99918569</latitude><altitude>190</altitude><heading>50.0</heading><tilt>57.65</tilt><roll>0</roll><altitudeMode>relativeToGround</altitudeMode></Camera>
        </gx:FlyTo>
        <gx:FlyTo>
          <gx:duration>0.6</gx:duration><gx:flyToMode>smooth</gx:flyToMode>
          <Camera><longitude>127.19265767</longitude><latitude>36.99957049</latitude><altitude>190</altitude><heading>60.0</heading><tilt>57.65</tilt><roll>0</roll><altitudeMode>relativeToGround</altitudeMode></Camera>
        </gx:FlyTo>
        <gx:FlyTo>
          <gx:duration>0.6</gx:duration><gx:flyToMode>smooth</gx:flyToMode>
          <Camera><longitude>127.19240907</longitude><latitude>36.99999623</latitude><altitude>190</altitude><heading>70.0</heading><tilt>57.65</tilt><roll>0</roll><altitudeMode>relativeToGround</altitudeMode></Camera>
        </gx:FlyTo>
        <gx:FlyTo>
          <gx:duration>0.6</gx:duration><gx:flyToMode>smooth</gx:flyToMode>
          <Camera><longitude>127.19225681</longitude><latitude>37.00044998</latitude><altitude>190</altitude><heading>80.0</heading><tilt>57.65</tilt><roll>0</roll><altitudeMode>relativeToGround</altitudeMode></Camera>
        </gx:FlyTo>
        <gx:FlyTo>
          <gx:duration>0.6</gx:duration><gx:flyToMode>smooth</gx:flyToMode>
          <Camera><longitude>127.19220552</longitude><latitude>37.00091795</latitude><altitude>190</altitude><heading>90.0</heading><tilt>57.65</tilt><roll>0</roll><altitudeMode>relativeToGround</altitudeMode></Camera>
        </gx:FlyTo>
        <gx:FlyTo>
          <gx:duration>0.6</gx:duration><gx:flyToMode>smooth</gx:flyToMode>
          <Camera><longitude>127.19225677</longitude><latitude>37.00138593</latitude><altitude>190</altitude><heading>100.0</heading><tilt>57.65</tilt><roll>0</roll><altitudeMode>relativeToGround</altitudeMode></Camera>
        </gx:FlyTo>
        <gx:FlyTo>
          <gx:duration>0.6</gx:duration><gx:flyToMode>smooth</gx:flyToMode>
          <Camera><longitude>127.19240899</longitude><latitude>37.00183968</latitude><altitude>190</altitude><heading>110.0</heading><tilt>57.65</tilt><roll>0</roll><altitudeMode>relativeToGround</altitudeMode></Camera>
        </gx:FlyTo>
        <gx:FlyTo>
          <gx:duration>0.6</gx:duration><gx:flyToMode>smooth</gx:flyToMode>
          <Camera><longitude>127.19265756</longitude><latitude>37.00226544</latitude><altitude>190</altitude><heading>120.0</heading><tilt>57.65</tilt><roll>0</roll><altitudeMode>relativeToGround</altitudeMode></Camera>
        </gx:FlyTo>
        <gx:FlyTo>
          <gx:duration>0.6</gx:duration><gx:flyToMode>smooth</gx:flyToMode>
          <Camera><longitude>127.19299494</longitude><latitude>37.00265025</latitude><altitude>190</altitude><heading>130.0</heading><tilt>57.65</tilt><roll>0</roll><altitudeMode>relativeToGround</altitudeMode></Camera>
        </gx:FlyTo>
        <gx:FlyTo>
          <gx:duration>0.6</gx:duration><gx:flyToMode>smooth</gx:flyToMode>
          <Camera><longitude>127.19341087</longitude><latitude>37.00298243</latitude><altitude>190</altitude><heading>140.0</heading><tilt>57.65</tilt><roll>0</roll><altitudeMode>relativeToGround</altitudeMode></Camera>
        </gx:FlyTo>
        <gx:FlyTo>
          <gx:duration>0.6</gx:duration><gx:flyToMode>smooth</gx:flyToMode>
          <Camera><longitude>127.19389271</longitude><latitude>37.00325188</latitude><altitude>190</altitude><heading>150.0</heading><tilt>57.65</tilt><roll>0</roll><altitudeMode>relativeToGround</altitudeMode></Camera>
        </gx:FlyTo>
        <gx:FlyTo>
          <gx:duration>0.6</gx:duration><gx:flyToMode>smooth</gx:flyToMode>
          <Camera><longitude>127.19442582</longitude><latitude>37.00345042</latitude><altitude>190</altitude><heading>160.0</heading><tilt>57.65</tilt><roll>0</roll><altitudeMode>relativeToGround</altitudeMode></Camera>
        </gx:FlyTo>
        <gx:FlyTo>
          <gx:duration>0.6</gx:duration><gx:flyToMode>smooth</gx:flyToMode>
          <Camera><longitude>127.19499401</longitude><latitude>37.00357200</latitude><altitude>190</altitude><heading>170.0</heading><tilt>57.65</tilt><roll>0</roll><altitudeMode>relativeToGround</altitudeMode></Camera>
        </gx:FlyTo>
        <gx:FlyTo>
          <gx:duration>0.6</gx:duration><gx:flyToMode>smooth</gx:flyToMode>
          <Camera><longitude>127.19558000</longitude><latitude>37.00361295</latitude><altitude>190</altitude><heading>180.0</heading><tilt>57.65</tilt><roll>0</roll><altitudeMode>relativeToGround</altitudeMode></Camera>
        </gx:FlyTo>
        <gx:Wait><gx:duration>2.0</gx:duration></gx:Wait>
      </gx:Playlist>
    </gx:Tour>
  </Document>
</kml>

