<?xml version="1.0" encoding="UTF-8"?>
<kml xmlns="http://www.opengis.net/kml/2.2" xmlns:gx="http://www.google.com/kml/ext/2.2">
  <Document>
    <name>여호와의 증인 세계 본부 2000m·1000m·500m·300m 순환 투어</name>
    <description><![CDATA[실제 카메라 좌표 이동 방식<br/>2,000m → 1,000m → 500m → 300m, 각 1회전]]></description>
    <Style id="centerStyle"><IconStyle><scale>1.25</scale><Icon><href>http://maps.google.com/mapfiles/kml/paddle/red-circle.png</href></Icon></IconStyle><LabelStyle><color>ff00ffff</color><scale>1.2</scale></LabelStyle></Style>
    <Placemark><name>여호와의 증인 세계 본부</name><styleUrl>#centerStyle</styleUrl><description>1 Kings Drive, Tuxedo Park, NY 10987, USA</description><Point><coordinates>-74.255239,41.159251,0</coordinates></Point></Placemark>
    <gx:Tour>
      <name>▶ 재생 — 2000m → 1000m → 500m → 300m</name>
      <gx:Playlist>
        <gx:FlyTo>
          <gx:duration>3.0</gx:duration><gx:flyToMode>smooth</gx:flyToMode>
          <Camera><longitude>-74.25523900</longitude><latitude>41.17721731</latitude><altitude>950</altitude><heading>180.0</heading><tilt>64.59</tilt><roll>0</roll><altitudeMode>relativeToGround</altitudeMode></Camera>
        </gx:FlyTo>
        <gx:FlyTo>
          <gx:duration>0.6</gx:duration><gx:flyToMode>smooth</gx:flyToMode>
          <Camera><longitude>-74.25109421</longitude><latitude>41.17694429</latitude><altitude>950</altitude><heading>190.0</heading><tilt>64.59</tilt><roll>0</roll><altitudeMode>relativeToGround</altitudeMode></Camera>
        </gx:FlyTo>
        <gx:FlyTo>
          <gx:duration>0.6</gx:duration><gx:flyToMode>smooth</gx:flyToMode>
          <Camera><longitude>-74.24707545</longitude><latitude>41.17613356</latitude><altitude>950</altitude><heading>200.0</heading><tilt>64.59</tilt><roll>0</roll><altitudeMode>relativeToGround</altitudeMode></Camera>
        </gx:FlyTo>
        <gx:FlyTo>
          <gx:duration>0.6</gx:duration><gx:flyToMode>smooth</gx:flyToMode>
          <Camera><longitude>-74.24330490</longitude><latitude>41.17480975</latitude><altitude>950</altitude><heading>210.0</heading><tilt>64.59</tilt><roll>0</roll><altitudeMode>relativeToGround</altitudeMode></Camera>
        </gx:FlyTo>
        <gx:FlyTo>
          <gx:duration>0.6</gx:duration><gx:flyToMode>smooth</gx:flyToMode>
          <Camera><longitude>-74.23989717</longitude><latitude>41.17301311</latitude><altitude>950</altitude><heading>220.0</heading><tilt>64.59</tilt><roll>0</roll><altitudeMode>relativeToGround</altitudeMode></Camera>
        </gx:FlyTo>
        <gx:FlyTo>
          <gx:duration>0.6</gx:duration><gx:flyToMode>smooth</gx:flyToMode>
          <Camera><longitude>-74.23695585</longitude><latitude>41.17079827</latitude><altitude>950</altitude><heading>230.0</heading><tilt>64.59</tilt><roll>0</roll><altitudeMode>relativeToGround</altitudeMode></Camera>
        </gx:FlyTo>
        <gx:FlyTo>
          <gx:duration>0.6</gx:duration><gx:flyToMode>smooth</gx:flyToMode>
          <Camera><longitude>-74.23457030</longitude><latitude>41.16823256</latitude><altitude>950</altitude><heading>240.0</heading><tilt>64.59</tilt><roll>0</roll><altitudeMode>relativeToGround</altitudeMode></Camera>
        </gx:FlyTo>
        <gx:FlyTo>
          <gx:duration>0.6</gx:duration><gx:flyToMode>smooth</gx:flyToMode>
          <Camera><longitude>-74.23281298</longitude><latitude>41.16539396</latitude><altitude>950</altitude><heading>250.0</heading><tilt>64.59</tilt><roll>0</roll><altitudeMode>relativeToGround</altitudeMode></Camera>
        </gx:FlyTo>
        <gx:FlyTo>
          <gx:duration>0.6</gx:duration><gx:flyToMode>smooth</gx:flyToMode>
          <Camera><longitude>-74.23173723</longitude><latitude>41.16236876</latitude><altitude>950</altitude><heading>260.0</heading><tilt>64.59</tilt><roll>0</roll><altitudeMode>relativeToGround</altitudeMode></Camera>
        </gx:FlyTo>
        <gx:FlyTo>
          <gx:duration>0.6</gx:duration><gx:flyToMode>smooth</gx:flyToMode>
          <Camera><longitude>-74.23137566</longitude><latitude>41.15924888</latitude><altitude>950</altitude><heading>270.0</heading><tilt>64.59</tilt><roll>0</roll><altitudeMode>relativeToGround</altitudeMode></Camera>
        </gx:FlyTo>
        <gx:FlyTo>
          <gx:duration>0.6</gx:duration><gx:flyToMode>smooth</gx:flyToMode>
          <Camera><longitude>-74.23173916</longitude><latitude>41.15612913</latitude><altitude>950</altitude><heading>280.0</heading><tilt>64.59</tilt><roll>0</roll><altitudeMode>relativeToGround</altitudeMode></Camera>
        </gx:FlyTo>
        <gx:FlyTo>
          <gx:duration>0.6</gx:duration><gx:flyToMode>smooth</gx:flyToMode>
          <Camera><longitude>-74.23281661</longitude><latitude>41.15310429</latitude><altitude>950</altitude><heading>290.0</heading><tilt>64.59</tilt><roll>0</roll><altitudeMode>relativeToGround</altitudeMode></Camera>
        </gx:FlyTo>
        <gx:FlyTo>
          <gx:duration>0.6</gx:duration><gx:flyToMode>smooth</gx:flyToMode>
          <Camera><longitude>-74.23457518</longitude><latitude>41.15026626</latitude><altitude>950</altitude><heading>300.0</heading><tilt>64.59</tilt><roll>0</roll><altitudeMode>relativeToGround</altitudeMode></Camera>
        </gx:FlyTo>
        <gx:FlyTo>
          <gx:duration>0.6</gx:duration><gx:flyToMode>smooth</gx:flyToMode>
          <Camera><longitude>-74.23696139</longitude><latitude>41.14770124</latitude><altitude>950</altitude><heading>310.0</heading><tilt>64.59</tilt><roll>0</roll><altitudeMode>relativeToGround</altitudeMode></Camera>
        </gx:FlyTo>
        <gx:FlyTo>
          <gx:duration>0.6</gx:duration><gx:flyToMode>smooth</gx:flyToMode>
          <Camera><longitude>-74.23990272</longitude><latitude>41.14548713</latitude><altitude>950</altitude><heading>320.0</heading><tilt>64.59</tilt><roll>0</roll><altitudeMode>relativeToGround</altitudeMode></Camera>
        </gx:FlyTo>
        <gx:FlyTo>
          <gx:duration>0.6</gx:duration><gx:flyToMode>smooth</gx:flyToMode>
          <Camera><longitude>-74.24330978</longitude><latitude>41.14369119</latitude><altitude>950</altitude><heading>330.0</heading><tilt>64.59</tilt><roll>0</roll><altitudeMode>relativeToGround</altitudeMode></Camera>
        </gx:FlyTo>
        <gx:FlyTo>
          <gx:duration>0.6</gx:duration><gx:flyToMode>smooth</gx:flyToMode>
          <Camera><longitude>-74.24707906</longitude><latitude>41.14236795</latitude><altitude>950</altitude><heading>340.0</heading><tilt>64.59</tilt><roll>0</roll><altitudeMode>relativeToGround</altitudeMode></Camera>
        </gx:FlyTo>
        <gx:FlyTo>
          <gx:duration>0.6</gx:duration><gx:flyToMode>smooth</gx:flyToMode>
          <Camera><longitude>-74.25109614</longitude><latitude>41.14155758</latitude><altitude>950</altitude><heading>350.0</heading><tilt>64.59</tilt><roll>0</roll><altitudeMode>relativeToGround</altitudeMode></Camera>
        </gx:FlyTo>
        <gx:FlyTo>
          <gx:duration>0.6</gx:duration><gx:flyToMode>smooth</gx:flyToMode>
          <Camera><longitude>-74.25523900</longitude><latitude>41.14128469</latitude><altitude>950</altitude><heading>0.0</heading><tilt>64.59</tilt><roll>0</roll><altitudeMode>relativeToGround</altitudeMode></Camera>
        </gx:FlyTo>
        <gx:FlyTo>
          <gx:duration>0.6</gx:duration><gx:flyToMode>smooth</gx:flyToMode>
          <Camera><longitude>-74.25938186</longitude><latitude>41.14155758</latitude><altitude>950</altitude><heading>10.0</heading><tilt>64.59</tilt><roll>0</roll><altitudeMode>relativeToGround</altitudeMode></Camera>
        </gx:FlyTo>
        <gx:FlyTo>
          <gx:duration>0.6</gx:duration><gx:flyToMode>smooth</gx:flyToMode>
          <Camera><longitude>-74.26339894</longitude><latitude>41.14236795</latitude><altitude>950</altitude><heading>20.0</heading><tilt>64.59</tilt><roll>0</roll><altitudeMode>relativeToGround</altitudeMode></Camera>
        </gx:FlyTo>
        <gx:FlyTo>
          <gx:duration>0.6</gx:duration><gx:flyToMode>smooth</gx:flyToMode>
          <Camera><longitude>-74.26716822</longitude><latitude>41.14369119</latitude><altitude>950</altitude><heading>30.0</heading><tilt>64.59</tilt><roll>0</roll><altitudeMode>relativeToGround</altitudeMode></Camera>
        </gx:FlyTo>
        <gx:FlyTo>
          <gx:duration>0.6</gx:duration><gx:flyToMode>smooth</gx:flyToMode>
          <Camera><longitude>-74.27057528</longitude><latitude>41.14548713</latitude><altitude>950</altitude><heading>40.0</heading><tilt>64.59</tilt><roll>0</roll><altitudeMode>relativeToGround</altitudeMode></Camera>
        </gx:FlyTo>
        <gx:FlyTo>
          <gx:duration>0.6</gx:duration><gx:flyToMode>smooth</gx:flyToMode>
          <Camera><longitude>-74.27351661</longitude><latitude>41.14770124</latitude><altitude>950</altitude><heading>50.0</heading><tilt>64.59</tilt><roll>0</roll><altitudeMode>relativeToGround</altitudeMode></Camera>
        </gx:FlyTo>
        <gx:FlyTo>
          <gx:duration>0.6</gx:duration><gx:flyToMode>smooth</gx:flyToMode>
          <Camera><longitude>-74.27590282</longitude><latitude>41.15026626</latitude><altitude>950</altitude><heading>60.0</heading><tilt>64.59</tilt><roll>0</roll><altitudeMode>relativeToGround</altitudeMode></Camera>
        </gx:FlyTo>
        <gx:FlyTo>
          <gx:duration>0.6</gx:duration><gx:flyToMode>smooth</gx:flyToMode>
          <Camera><longitude>-74.27766139</longitude><latitude>41.15310429</latitude><altitude>950</altitude><heading>70.0</heading><tilt>64.59</tilt><roll>0</roll><altitudeMode>relativeToGround</altitudeMode></Camera>
        </gx:FlyTo>
        <gx:FlyTo>
          <gx:duration>0.6</gx:duration><gx:flyToMode>smooth</gx:flyToMode>
          <Camera><longitude>-74.27873884</longitude><latitude>41.15612913</latitude><altitude>950</altitude><heading>80.0</heading><tilt>64.59</tilt><roll>0</roll><altitudeMode>relativeToGround</altitudeMode></Camera>
        </gx:FlyTo>
        <gx:FlyTo>
          <gx:duration>0.6</gx:duration><gx:flyToMode>smooth</gx:flyToMode>
          <Camera><longitude>-74.27910234</longitude><latitude>41.15924888</latitude><altitude>950</altitude><heading>90.0</heading><tilt>64.59</tilt><roll>0</roll><altitudeMode>relativeToGround</altitudeMode></Camera>
        </gx:FlyTo>
        <gx:FlyTo>
          <gx:duration>0.6</gx:duration><gx:flyToMode>smooth</gx:flyToMode>
          <Camera><longitude>-74.27874077</longitude><latitude>41.16236876</latitude><altitude>950</altitude><heading>100.0</heading><tilt>64.59</tilt><roll>0</roll><altitudeMode>relativeToGround</altitudeMode></Camera>
        </gx:FlyTo>
        <gx:FlyTo>
          <gx:duration>0.6</gx:duration><gx:flyToMode>smooth</gx:flyToMode>
          <Camera><longitude>-74.27766502</longitude><latitude>41.16539396</latitude><altitude>950</altitude><heading>110.0</heading><tilt>64.59</tilt><roll>0</roll><altitudeMode>relativeToGround</altitudeMode></Camera>
        </gx:FlyTo>
        <gx:FlyTo>
          <gx:duration>0.6</gx:duration><gx:flyToMode>smooth</gx:flyToMode>
          <Camera><longitude>-74.27590770</longitude><latitude>41.16823256</latitude><altitude>950</altitude><heading>120.0</heading><tilt>64.59</tilt><roll>0</roll><altitudeMode>relativeToGround</altitudeMode></Camera>
        </gx:FlyTo>
        <gx:FlyTo>
          <gx:duration>0.6</gx:duration><gx:flyToMode>smooth</gx:flyToMode>
          <Camera><longitude>-74.27352215</longitude><latitude>41.17079827</latitude><altitude>950</altitude><heading>130.0</heading><tilt>64.59</tilt><roll>0</roll><altitudeMode>relativeToGround</altitudeMode></Camera>
        </gx:FlyTo>
        <gx:FlyTo>
          <gx:duration>0.6</gx:duration><gx:flyToMode>smooth</gx:flyToMode>
          <Camera><longitude>-74.27058083</longitude><latitude>41.17301311</latitude><altitude>950</altitude><heading>140.0</heading><tilt>64.59</tilt><roll>0</roll><altitudeMode>relativeToGround</altitudeMode></Camera>
        </gx:FlyTo>
        <gx:FlyTo>
          <gx:duration>0.6</gx:duration><gx:flyToMode>smooth</gx:flyToMode>
          <Camera><longitude>-74.26717310</longitude><latitude>41.17480975</latitude><altitude>950</altitude><heading>150.0</heading><tilt>64.59</tilt><roll>0</roll><altitudeMode>relativeToGround</altitudeMode></Camera>
        </gx:FlyTo>
        <gx:FlyTo>
          <gx:duration>0.6</gx:duration><gx:flyToMode>smooth</gx:flyToMode>
          <Camera><longitude>-74.26340255</longitude><latitude>41.17613356</latitude><altitude>950</altitude><heading>160.0</heading><tilt>64.59</tilt><roll>0</roll><altitudeMode>relativeToGround</altitudeMode></Camera>
        </gx:FlyTo>
        <gx:FlyTo>
          <gx:duration>0.6</gx:duration><gx:flyToMode>smooth</gx:flyToMode>
          <Camera><longitude>-74.25938379</longitude><latitude>41.17694429</latitude><altitude>950</altitude><heading>170.0</heading><tilt>64.59</tilt><roll>0</roll><altitudeMode>relativeToGround</altitudeMode></Camera>
        </gx:FlyTo>
        <gx:FlyTo>
          <gx:duration>0.6</gx:duration><gx:flyToMode>smooth</gx:flyToMode>
          <Camera><longitude>-74.25523900</longitude><latitude>41.17721731</latitude><altitude>950</altitude><heading>180.0</heading><tilt>64.59</tilt><roll>0</roll><altitudeMode>relativeToGround</altitudeMode></Camera>
        </gx:FlyTo>
        <gx:Wait><gx:duration>1.0</gx:duration></gx:Wait>
        <gx:FlyTo>
          <gx:duration>3.0</gx:duration><gx:flyToMode>smooth</gx:flyToMode>
          <Camera><longitude>-74.25523900</longitude><latitude>41.16823415</latitude><altitude>550</altitude><heading>180.0</heading><tilt>61.19</tilt><roll>0</roll><altitudeMode>relativeToGround</altitudeMode></Camera>
        </gx:FlyTo>
        <gx:FlyTo>
          <gx:duration>0.6</gx:duration><gx:flyToMode>smooth</gx:flyToMode>
          <Camera><longitude>-74.25316684</longitude><latitude>41.16809766</latitude><altitude>550</altitude><heading>190.0</heading><tilt>61.19</tilt><roll>0</roll><altitudeMode>relativeToGround</altitudeMode></Camera>
        </gx:FlyTo>
        <gx:FlyTo>
          <gx:duration>0.6</gx:duration><gx:flyToMode>smooth</gx:flyToMode>
          <Camera><longitude>-74.25115768</longitude><latitude>41.16769234</latitude><altitude>550</altitude><heading>200.0</heading><tilt>61.19</tilt><roll>0</roll><altitudeMode>relativeToGround</altitudeMode></Camera>
        </gx:FlyTo>
        <gx:FlyTo>
          <gx:duration>0.6</gx:duration><gx:flyToMode>smooth</gx:flyToMode>
          <Camera><longitude>-74.24927255</longitude><latitude>41.16703051</latitude><altitude>550</altitude><heading>210.0</heading><tilt>61.19</tilt><roll>0</roll><altitudeMode>relativeToGround</altitudeMode></Camera>
        </gx:FlyTo>
        <gx:FlyTo>
          <gx:duration>0.6</gx:duration><gx:flyToMode>smooth</gx:flyToMode>
          <Camera><longitude>-74.24756877</longitude><latitude>41.16613228</latitude><altitude>550</altitude><heading>220.0</heading><tilt>61.19</tilt><roll>0</roll><altitudeMode>relativeToGround</altitudeMode></Camera>
        </gx:FlyTo>
        <gx:FlyTo>
          <gx:duration>0.6</gx:duration><gx:flyToMode>smooth</gx:flyToMode>
          <Camera><longitude>-74.24609812</longitude><latitude>41.16502495</latitude><altitude>550</altitude><heading>230.0</heading><tilt>61.19</tilt><roll>0</roll><altitudeMode>relativeToGround</altitudeMode></Camera>
        </gx:FlyTo>
        <gx:FlyTo>
          <gx:duration>0.6</gx:duration><gx:flyToMode>smooth</gx:flyToMode>
          <Camera><longitude>-74.24490526</longitude><latitude>41.16374218</latitude><altitude>550</altitude><heading>240.0</heading><tilt>61.19</tilt><roll>0</roll><altitudeMode>relativeToGround</altitudeMode></Camera>
        </gx:FlyTo>
        <gx:FlyTo>
          <gx:duration>0.6</gx:duration><gx:flyToMode>smooth</gx:flyToMode>
          <Camera><longitude>-74.24402644</longitude><latitude>41.16232295</latitude><altitude>550</altitude><heading>250.0</heading><tilt>61.19</tilt><roll>0</roll><altitudeMode>relativeToGround</altitudeMode></Camera>
        </gx:FlyTo>
        <gx:FlyTo>
          <gx:duration>0.6</gx:duration><gx:flyToMode>smooth</gx:flyToMode>
          <Camera><longitude>-74.24348836</longitude><latitude>41.16081039</latitude><altitude>550</altitude><heading>260.0</heading><tilt>61.19</tilt><roll>0</roll><altitudeMode>relativeToGround</altitudeMode></Camera>
        </gx:FlyTo>
        <gx:FlyTo>
          <gx:duration>0.6</gx:duration><gx:flyToMode>smooth</gx:flyToMode>
          <Camera><longitude>-74.24330734</longitude><latitude>41.15925047</latitude><altitude>550</altitude><heading>270.0</heading><tilt>61.19</tilt><roll>0</roll><altitudeMode>relativeToGround</altitudeMode></Camera>
        </gx:FlyTo>
        <gx:FlyTo>
          <gx:duration>0.6</gx:duration><gx:flyToMode>smooth</gx:flyToMode>
          <Camera><longitude>-74.24348884</longitude><latitude>41.15769058</latitude><altitude>550</altitude><heading>280.0</heading><tilt>61.19</tilt><roll>0</roll><altitudeMode>relativeToGround</altitudeMode></Camera>
        </gx:FlyTo>
        <gx:FlyTo>
          <gx:duration>0.6</gx:duration><gx:flyToMode>smooth</gx:flyToMode>
          <Camera><longitude>-74.24402735</longitude><latitude>41.15617811</latitude><altitude>550</altitude><heading>290.0</heading><tilt>61.19</tilt><roll>0</roll><altitudeMode>relativeToGround</altitudeMode></Camera>
        </gx:FlyTo>
        <gx:FlyTo>
          <gx:duration>0.6</gx:duration><gx:flyToMode>smooth</gx:flyToMode>
          <Camera><longitude>-74.24490648</longitude><latitude>41.15475903</latitude><altitude>550</altitude><heading>300.0</heading><tilt>61.19</tilt><roll>0</roll><altitudeMode>relativeToGround</altitudeMode></Camera>
        </gx:FlyTo>
        <gx:FlyTo>
          <gx:duration>0.6</gx:duration><gx:flyToMode>smooth</gx:flyToMode>
          <Camera><longitude>-74.24609951</longitude><latitude>41.15347643</latitude><altitude>550</altitude><heading>310.0</heading><tilt>61.19</tilt><roll>0</roll><altitudeMode>relativeToGround</altitudeMode></Camera>
        </gx:FlyTo>
        <gx:FlyTo>
          <gx:duration>0.6</gx:duration><gx:flyToMode>smooth</gx:flyToMode>
          <Camera><longitude>-74.24757016</longitude><latitude>41.15236929</latitude><altitude>550</altitude><heading>320.0</heading><tilt>61.19</tilt><roll>0</roll><altitudeMode>relativeToGround</altitudeMode></Camera>
        </gx:FlyTo>
        <gx:FlyTo>
          <gx:duration>0.6</gx:duration><gx:flyToMode>smooth</gx:flyToMode>
          <Camera><longitude>-74.24927377</longitude><latitude>41.15147123</latitude><altitude>550</altitude><heading>330.0</heading><tilt>61.19</tilt><roll>0</roll><altitudeMode>relativeToGround</altitudeMode></Camera>
        </gx:FlyTo>
        <gx:FlyTo>
          <gx:duration>0.6</gx:duration><gx:flyToMode>smooth</gx:flyToMode>
          <Camera><longitude>-74.25115858</longitude><latitude>41.15080954</latitude><altitude>550</altitude><heading>340.0</heading><tilt>61.19</tilt><roll>0</roll><altitudeMode>relativeToGround</altitudeMode></Camera>
        </gx:FlyTo>
        <gx:FlyTo>
          <gx:duration>0.6</gx:duration><gx:flyToMode>smooth</gx:flyToMode>
          <Camera><longitude>-74.25316733</longitude><latitude>41.15040431</latitude><altitude>550</altitude><heading>350.0</heading><tilt>61.19</tilt><roll>0</roll><altitudeMode>relativeToGround</altitudeMode></Camera>
        </gx:FlyTo>
        <gx:FlyTo>
          <gx:duration>0.6</gx:duration><gx:flyToMode>smooth</gx:flyToMode>
          <Camera><longitude>-74.25523900</longitude><latitude>41.15026785</latitude><altitude>550</altitude><heading>0.0</heading><tilt>61.19</tilt><roll>0</roll><altitudeMode>relativeToGround</altitudeMode></Camera>
        </gx:FlyTo>
        <gx:FlyTo>
          <gx:duration>0.6</gx:duration><gx:flyToMode>smooth</gx:flyToMode>
          <Camera><longitude>-74.25731067</longitude><latitude>41.15040431</latitude><altitude>550</altitude><heading>10.0</heading><tilt>61.19</tilt><roll>0</roll><altitudeMode>relativeToGround</altitudeMode></Camera>
        </gx:FlyTo>
        <gx:FlyTo>
          <gx:duration>0.6</gx:duration><gx:flyToMode>smooth</gx:flyToMode>
          <Camera><longitude>-74.25931942</longitude><latitude>41.15080954</latitude><altitude>550</altitude><heading>20.0</heading><tilt>61.19</tilt><roll>0</roll><altitudeMode>relativeToGround</altitudeMode></Camera>
        </gx:FlyTo>
        <gx:FlyTo>
          <gx:duration>0.6</gx:duration><gx:flyToMode>smooth</gx:flyToMode>
          <Camera><longitude>-74.26120423</longitude><latitude>41.15147123</latitude><altitude>550</altitude><heading>30.0</heading><tilt>61.19</tilt><roll>0</roll><altitudeMode>relativeToGround</altitudeMode></Camera>
        </gx:FlyTo>
        <gx:FlyTo>
          <gx:duration>0.6</gx:duration><gx:flyToMode>smooth</gx:flyToMode>
          <Camera><longitude>-74.26290784</longitude><latitude>41.15236929</latitude><altitude>550</altitude><heading>40.0</heading><tilt>61.19</tilt><roll>0</roll><altitudeMode>relativeToGround</altitudeMode></Camera>
        </gx:FlyTo>
        <gx:FlyTo>
          <gx:duration>0.6</gx:duration><gx:flyToMode>smooth</gx:flyToMode>
          <Camera><longitude>-74.26437849</longitude><latitude>41.15347643</latitude><altitude>550</altitude><heading>50.0</heading><tilt>61.19</tilt><roll>0</roll><altitudeMode>relativeToGround</altitudeMode></Camera>
        </gx:FlyTo>
        <gx:FlyTo>
          <gx:duration>0.6</gx:duration><gx:flyToMode>smooth</gx:flyToMode>
          <Camera><longitude>-74.26557152</longitude><latitude>41.15475903</latitude><altitude>550</altitude><heading>60.0</heading><tilt>61.19</tilt><roll>0</roll><altitudeMode>relativeToGround</altitudeMode></Camera>
        </gx:FlyTo>
        <gx:FlyTo>
          <gx:duration>0.6</gx:duration><gx:flyToMode>smooth</gx:flyToMode>
          <Camera><longitude>-74.26645065</longitude><latitude>41.15617811</latitude><altitude>550</altitude><heading>70.0</heading><tilt>61.19</tilt><roll>0</roll><altitudeMode>relativeToGround</altitudeMode></Camera>
        </gx:FlyTo>
        <gx:FlyTo>
          <gx:duration>0.6</gx:duration><gx:flyToMode>smooth</gx:flyToMode>
          <Camera><longitude>-74.26698916</longitude><latitude>41.15769058</latitude><altitude>550</altitude><heading>80.0</heading><tilt>61.19</tilt><roll>0</roll><altitudeMode>relativeToGround</altitudeMode></Camera>
        </gx:FlyTo>
        <gx:FlyTo>
          <gx:duration>0.6</gx:duration><gx:flyToMode>smooth</gx:flyToMode>
          <Camera><longitude>-74.26717066</longitude><latitude>41.15925047</latitude><altitude>550</altitude><heading>90.0</heading><tilt>61.19</tilt><roll>0</roll><altitudeMode>relativeToGround</altitudeMode></Camera>
        </gx:FlyTo>
        <gx:FlyTo>
          <gx:duration>0.6</gx:duration><gx:flyToMode>smooth</gx:flyToMode>
          <Camera><longitude>-74.26698964</longitude><latitude>41.16081039</latitude><altitude>550</altitude><heading>100.0</heading><tilt>61.19</tilt><roll>0</roll><altitudeMode>relativeToGround</altitudeMode></Camera>
        </gx:FlyTo>
        <gx:FlyTo>
          <gx:duration>0.6</gx:duration><gx:flyToMode>smooth</gx:flyToMode>
          <Camera><longitude>-74.26645156</longitude><latitude>41.16232295</latitude><altitude>550</altitude><heading>110.0</heading><tilt>61.19</tilt><roll>0</roll><altitudeMode>relativeToGround</altitudeMode></Camera>
        </gx:FlyTo>
        <gx:FlyTo>
          <gx:duration>0.6</gx:duration><gx:flyToMode>smooth</gx:flyToMode>
          <Camera><longitude>-74.26557274</longitude><latitude>41.16374218</latitude><altitude>550</altitude><heading>120.0</heading><tilt>61.19</tilt><roll>0</roll><altitudeMode>relativeToGround</altitudeMode></Camera>
        </gx:FlyTo>
        <gx:FlyTo>
          <gx:duration>0.6</gx:duration><gx:flyToMode>smooth</gx:flyToMode>
          <Camera><longitude>-74.26437988</longitude><latitude>41.16502495</latitude><altitude>550</altitude><heading>130.0</heading><tilt>61.19</tilt><roll>0</roll><altitudeMode>relativeToGround</altitudeMode></Camera>
        </gx:FlyTo>
        <gx:FlyTo>
          <gx:duration>0.6</gx:duration><gx:flyToMode>smooth</gx:flyToMode>
          <Camera><longitude>-74.26290923</longitude><latitude>41.16613228</latitude><altitude>550</altitude><heading>140.0</heading><tilt>61.19</tilt><roll>0</roll><altitudeMode>relativeToGround</altitudeMode></Camera>
        </gx:FlyTo>
        <gx:FlyTo>
          <gx:duration>0.6</gx:duration><gx:flyToMode>smooth</gx:flyToMode>
          <Camera><longitude>-74.26120545</longitude><latitude>41.16703051</latitude><altitude>550</altitude><heading>150.0</heading><tilt>61.19</tilt><roll>0</roll><altitudeMode>relativeToGround</altitudeMode></Camera>
        </gx:FlyTo>
        <gx:FlyTo>
          <gx:duration>0.6</gx:duration><gx:flyToMode>smooth</gx:flyToMode>
          <Camera><longitude>-74.25932032</longitude><latitude>41.16769234</latitude><altitude>550</altitude><heading>160.0</heading><tilt>61.19</tilt><roll>0</roll><altitudeMode>relativeToGround</altitudeMode></Camera>
        </gx:FlyTo>
        <gx:FlyTo>
          <gx:duration>0.6</gx:duration><gx:flyToMode>smooth</gx:flyToMode>
          <Camera><longitude>-74.25731116</longitude><latitude>41.16809766</latitude><altitude>550</altitude><heading>170.0</heading><tilt>61.19</tilt><roll>0</roll><altitudeMode>relativeToGround</altitudeMode></Camera>
        </gx:FlyTo>
        <gx:FlyTo>
          <gx:duration>0.6</gx:duration><gx:flyToMode>smooth</gx:flyToMode>
          <Camera><longitude>-74.25523900</longitude><latitude>41.16823415</latitude><altitude>550</altitude><heading>180.0</heading><tilt>61.19</tilt><roll>0</roll><altitudeMode>relativeToGround</altitudeMode></Camera>
        </gx:FlyTo>
        <gx:Wait><gx:duration>1.0</gx:duration></gx:Wait>
        <gx:FlyTo>
          <gx:duration>3.0</gx:duration><gx:flyToMode>smooth</gx:flyToMode>
          <Camera><longitude>-74.25523900</longitude><latitude>41.16374258</latitude><altitude>300</altitude><heading>180.0</heading><tilt>59.04</tilt><roll>0</roll><altitudeMode>relativeToGround</altitudeMode></Camera>
        </gx:FlyTo>
        <gx:FlyTo>
          <gx:duration>0.6</gx:duration><gx:flyToMode>smooth</gx:flyToMode>
          <Camera><longitude>-74.25420298</longitude><latitude>41.16367434</latitude><altitude>300</altitude><heading>190.0</heading><tilt>59.04</tilt><roll>0</roll><altitudeMode>relativeToGround</altitudeMode></Camera>
        </gx:FlyTo>
        <gx:FlyTo>
          <gx:duration>0.6</gx:duration><gx:flyToMode>smooth</gx:flyToMode>
          <Camera><longitude>-74.25319845</longitude><latitude>41.16347169</latitude><altitude>300</altitude><heading>200.0</heading><tilt>59.04</tilt><roll>0</roll><altitudeMode>relativeToGround</altitudeMode></Camera>
        </gx:FlyTo>
        <gx:FlyTo>
          <gx:duration>0.6</gx:duration><gx:flyToMode>smooth</gx:flyToMode>
          <Camera><longitude>-74.25225593</longitude><latitude>41.16314079</latitude><altitude>300</altitude><heading>210.0</heading><tilt>59.04</tilt><roll>0</roll><altitudeMode>relativeToGround</altitudeMode></Camera>
        </gx:FlyTo>
        <gx:FlyTo>
          <gx:duration>0.6</gx:duration><gx:flyToMode>smooth</gx:flyToMode>
          <Camera><longitude>-74.25140406</longitude><latitude>41.16269169</latitude><altitude>300</altitude><heading>220.0</heading><tilt>59.04</tilt><roll>0</roll><altitudeMode>relativeToGround</altitudeMode></Camera>
        </gx:FlyTo>
        <gx:FlyTo>
          <gx:duration>0.6</gx:duration><gx:flyToMode>smooth</gx:flyToMode>
          <Camera><longitude>-74.25066873</longitude><latitude>41.16213805</latitude><altitude>300</altitude><heading>230.0</heading><tilt>59.04</tilt><roll>0</roll><altitudeMode>relativeToGround</altitudeMode></Camera>
        </gx:FlyTo>
        <gx:FlyTo>
          <gx:duration>0.6</gx:duration><gx:flyToMode>smooth</gx:flyToMode>
          <Camera><longitude>-74.25007228</longitude><latitude>41.16149669</latitude><altitude>300</altitude><heading>240.0</heading><tilt>59.04</tilt><roll>0</roll><altitudeMode>relativeToGround</altitudeMode></Camera>
        </gx:FlyTo>
        <gx:FlyTo>
          <gx:duration>0.6</gx:duration><gx:flyToMode>smooth</gx:flyToMode>
          <Camera><longitude>-74.24963284</longitude><latitude>41.16078709</latitude><altitude>300</altitude><heading>250.0</heading><tilt>59.04</tilt><roll>0</roll><altitudeMode>relativeToGround</altitudeMode></Camera>
        </gx:FlyTo>
        <gx:FlyTo>
          <gx:duration>0.6</gx:duration><gx:flyToMode>smooth</gx:flyToMode>
          <Camera><longitude>-74.24936374</longitude><latitude>41.16003083</latitude><altitude>300</altitude><heading>260.0</heading><tilt>59.04</tilt><roll>0</roll><altitudeMode>relativeToGround</altitudeMode></Camera>
        </gx:FlyTo>
        <gx:FlyTo>
          <gx:duration>0.6</gx:duration><gx:flyToMode>smooth</gx:flyToMode>
          <Camera><longitude>-74.24927316</longitude><latitude>41.15925087</latitude><altitude>300</altitude><heading>270.0</heading><tilt>59.04</tilt><roll>0</roll><altitudeMode>relativeToGround</altitudeMode></Camera>
        </gx:FlyTo>
        <gx:FlyTo>
          <gx:duration>0.6</gx:duration><gx:flyToMode>smooth</gx:flyToMode>
          <Camera><longitude>-74.24936386</longitude><latitude>41.15847092</latitude><altitude>300</altitude><heading>280.0</heading><tilt>59.04</tilt><roll>0</roll><altitudeMode>relativeToGround</altitudeMode></Camera>
        </gx:FlyTo>
        <gx:FlyTo>
          <gx:duration>0.6</gx:duration><gx:flyToMode>smooth</gx:flyToMode>
          <Camera><longitude>-74.24963306</longitude><latitude>41.15771467</latitude><altitude>300</altitude><heading>290.0</heading><tilt>59.04</tilt><roll>0</roll><altitudeMode>relativeToGround</altitudeMode></Camera>
        </gx:FlyTo>
        <gx:FlyTo>
          <gx:duration>0.6</gx:duration><gx:flyToMode>smooth</gx:flyToMode>
          <Camera><longitude>-74.25007258</longitude><latitude>41.15700511</latitude><altitude>300</altitude><heading>300.0</heading><tilt>59.04</tilt><roll>0</roll><altitudeMode>relativeToGround</altitudeMode></Camera>
        </gx:FlyTo>
        <gx:FlyTo>
          <gx:duration>0.6</gx:duration><gx:flyToMode>smooth</gx:flyToMode>
          <Camera><longitude>-74.25066908</longitude><latitude>41.15636379</latitude><altitude>300</altitude><heading>310.0</heading><tilt>59.04</tilt><roll>0</roll><altitudeMode>relativeToGround</altitudeMode></Camera>
        </gx:FlyTo>
        <gx:FlyTo>
          <gx:duration>0.6</gx:duration><gx:flyToMode>smooth</gx:flyToMode>
          <Camera><longitude>-74.25140441</longitude><latitude>41.15581020</latitude><altitude>300</altitude><heading>320.0</heading><tilt>59.04</tilt><roll>0</roll><altitudeMode>relativeToGround</altitudeMode></Camera>
        </gx:FlyTo>
        <gx:FlyTo>
          <gx:duration>0.6</gx:duration><gx:flyToMode>smooth</gx:flyToMode>
          <Camera><longitude>-74.25225624</longitude><latitude>41.15536115</latitude><altitude>300</altitude><heading>330.0</heading><tilt>59.04</tilt><roll>0</roll><altitudeMode>relativeToGround</altitudeMode></Camera>
        </gx:FlyTo>
        <gx:FlyTo>
          <gx:duration>0.6</gx:duration><gx:flyToMode>smooth</gx:flyToMode>
          <Camera><longitude>-74.25319867</longitude><latitude>41.15503028</latitude><altitude>300</altitude><heading>340.0</heading><tilt>59.04</tilt><roll>0</roll><altitudeMode>relativeToGround</altitudeMode></Camera>
        </gx:FlyTo>
        <gx:FlyTo>
          <gx:duration>0.6</gx:duration><gx:flyToMode>smooth</gx:flyToMode>
          <Camera><longitude>-74.25420311</longitude><latitude>41.15482766</latitude><altitude>300</altitude><heading>350.0</heading><tilt>59.04</tilt><roll>0</roll><altitudeMode>relativeToGround</altitudeMode></Camera>
        </gx:FlyTo>
        <gx:FlyTo>
          <gx:duration>0.6</gx:duration><gx:flyToMode>smooth</gx:flyToMode>
          <Camera><longitude>-74.25523900</longitude><latitude>41.15475942</latitude><altitude>300</altitude><heading>0.0</heading><tilt>59.04</tilt><roll>0</roll><altitudeMode>relativeToGround</altitudeMode></Camera>
        </gx:FlyTo>
        <gx:FlyTo>
          <gx:duration>0.6</gx:duration><gx:flyToMode>smooth</gx:flyToMode>
          <Camera><longitude>-74.25627489</longitude><latitude>41.15482766</latitude><altitude>300</altitude><heading>10.0</heading><tilt>59.04</tilt><roll>0</roll><altitudeMode>relativeToGround</altitudeMode></Camera>
        </gx:FlyTo>
        <gx:FlyTo>
          <gx:duration>0.6</gx:duration><gx:flyToMode>smooth</gx:flyToMode>
          <Camera><longitude>-74.25727933</longitude><latitude>41.15503028</latitude><altitude>300</altitude><heading>20.0</heading><tilt>59.04</tilt><roll>0</roll><altitudeMode>relativeToGround</altitudeMode></Camera>
        </gx:FlyTo>
        <gx:FlyTo>
          <gx:duration>0.6</gx:duration><gx:flyToMode>smooth</gx:flyToMode>
          <Camera><longitude>-74.25822176</longitude><latitude>41.15536115</latitude><altitude>300</altitude><heading>30.0</heading><tilt>59.04</tilt><roll>0</roll><altitudeMode>relativeToGround</altitudeMode></Camera>
        </gx:FlyTo>
        <gx:FlyTo>
          <gx:duration>0.6</gx:duration><gx:flyToMode>smooth</gx:flyToMode>
          <Camera><longitude>-74.25907359</longitude><latitude>41.15581020</latitude><altitude>300</altitude><heading>40.0</heading><tilt>59.04</tilt><roll>0</roll><altitudeMode>relativeToGround</altitudeMode></Camera>
        </gx:FlyTo>
        <gx:FlyTo>
          <gx:duration>0.6</gx:duration><gx:flyToMode>smooth</gx:flyToMode>
          <Camera><longitude>-74.25980892</longitude><latitude>41.15636379</latitude><altitude>300</altitude><heading>50.0</heading><tilt>59.04</tilt><roll>0</roll><altitudeMode>relativeToGround</altitudeMode></Camera>
        </gx:FlyTo>
        <gx:FlyTo>
          <gx:duration>0.6</gx:duration><gx:flyToMode>smooth</gx:flyToMode>
          <Camera><longitude>-74.26040542</longitude><latitude>41.15700511</latitude><altitude>300</altitude><heading>60.0</heading><tilt>59.04</tilt><roll>0</roll><altitudeMode>relativeToGround</altitudeMode></Camera>
        </gx:FlyTo>
        <gx:FlyTo>
          <gx:duration>0.6</gx:duration><gx:flyToMode>smooth</gx:flyToMode>
          <Camera><longitude>-74.26084494</longitude><latitude>41.15771467</latitude><altitude>300</altitude><heading>70.0</heading><tilt>59.04</tilt><roll>0</roll><altitudeMode>relativeToGround</altitudeMode></Camera>
        </gx:FlyTo>
        <gx:FlyTo>
          <gx:duration>0.6</gx:duration><gx:flyToMode>smooth</gx:flyToMode>
          <Camera><longitude>-74.26111414</longitude><latitude>41.15847092</latitude><altitude>300</altitude><heading>80.0</heading><tilt>59.04</tilt><roll>0</roll><altitudeMode>relativeToGround</altitudeMode></Camera>
        </gx:FlyTo>
        <gx:FlyTo>
          <gx:duration>0.6</gx:duration><gx:flyToMode>smooth</gx:flyToMode>
          <Camera><longitude>-74.26120484</longitude><latitude>41.15925087</latitude><altitude>300</altitude><heading>90.0</heading><tilt>59.04</tilt><roll>0</roll><altitudeMode>relativeToGround</altitudeMode></Camera>
        </gx:FlyTo>
        <gx:FlyTo>
          <gx:duration>0.6</gx:duration><gx:flyToMode>smooth</gx:flyToMode>
          <Camera><longitude>-74.26111426</longitude><latitude>41.16003083</latitude><altitude>300</altitude><heading>100.0</heading><tilt>59.04</tilt><roll>0</roll><altitudeMode>relativeToGround</altitudeMode></Camera>
        </gx:FlyTo>
        <gx:FlyTo>
          <gx:duration>0.6</gx:duration><gx:flyToMode>smooth</gx:flyToMode>
          <Camera><longitude>-74.26084516</longitude><latitude>41.16078709</latitude><altitude>300</altitude><heading>110.0</heading><tilt>59.04</tilt><roll>0</roll><altitudeMode>relativeToGround</altitudeMode></Camera>
        </gx:FlyTo>
        <gx:FlyTo>
          <gx:duration>0.6</gx:duration><gx:flyToMode>smooth</gx:flyToMode>
          <Camera><longitude>-74.26040572</longitude><latitude>41.16149669</latitude><altitude>300</altitude><heading>120.0</heading><tilt>59.04</tilt><roll>0</roll><altitudeMode>relativeToGround</altitudeMode></Camera>
        </gx:FlyTo>
        <gx:FlyTo>
          <gx:duration>0.6</gx:duration><gx:flyToMode>smooth</gx:flyToMode>
          <Camera><longitude>-74.25980927</longitude><latitude>41.16213805</latitude><altitude>300</altitude><heading>130.0</heading><tilt>59.04</tilt><roll>0</roll><altitudeMode>relativeToGround</altitudeMode></Camera>
        </gx:FlyTo>
        <gx:FlyTo>
          <gx:duration>0.6</gx:duration><gx:flyToMode>smooth</gx:flyToMode>
          <Camera><longitude>-74.25907394</longitude><latitude>41.16269169</latitude><altitude>300</altitude><heading>140.0</heading><tilt>59.04</tilt><roll>0</roll><altitudeMode>relativeToGround</altitudeMode></Camera>
        </gx:FlyTo>
        <gx:FlyTo>
          <gx:duration>0.6</gx:duration><gx:flyToMode>smooth</gx:flyToMode>
          <Camera><longitude>-74.25822207</longitude><latitude>41.16314079</latitude><altitude>300</altitude><heading>150.0</heading><tilt>59.04</tilt><roll>0</roll><altitudeMode>relativeToGround</altitudeMode></Camera>
        </gx:FlyTo>
        <gx:FlyTo>
          <gx:duration>0.6</gx:duration><gx:flyToMode>smooth</gx:flyToMode>
          <Camera><longitude>-74.25727955</longitude><latitude>41.16347169</latitude><altitude>300</altitude><heading>160.0</heading><tilt>59.04</tilt><roll>0</roll><altitudeMode>relativeToGround</altitudeMode></Camera>
        </gx:FlyTo>
        <gx:FlyTo>
          <gx:duration>0.6</gx:duration><gx:flyToMode>smooth</gx:flyToMode>
          <Camera><longitude>-74.25627502</longitude><latitude>41.16367434</latitude><altitude>300</altitude><heading>170.0</heading><tilt>59.04</tilt><roll>0</roll><altitudeMode>relativeToGround</altitudeMode></Camera>
        </gx:FlyTo>
        <gx:FlyTo>
          <gx:duration>0.6</gx:duration><gx:flyToMode>smooth</gx:flyToMode>
          <Camera><longitude>-74.25523900</longitude><latitude>41.16374258</latitude><altitude>300</altitude><heading>180.0</heading><tilt>59.04</tilt><roll>0</roll><altitudeMode>relativeToGround</altitudeMode></Camera>
        </gx:FlyTo>
        <gx:Wait><gx:duration>1.0</gx:duration></gx:Wait>
        <gx:FlyTo>
          <gx:duration>3.0</gx:duration><gx:flyToMode>smooth</gx:flyToMode>
          <Camera><longitude>-74.25523900</longitude><latitude>41.16194595</latitude><altitude>190</altitude><heading>180.0</heading><tilt>57.65</tilt><roll>0</roll><altitudeMode>relativeToGround</altitudeMode></Camera>
        </gx:FlyTo>
        <gx:FlyTo>
          <gx:duration>0.6</gx:duration><gx:flyToMode>smooth</gx:flyToMode>
          <Camera><longitude>-74.25461740</longitude><latitude>41.16190500</latitude><altitude>190</altitude><heading>190.0</heading><tilt>57.65</tilt><roll>0</roll><altitudeMode>relativeToGround</altitudeMode></Camera>
        </gx:FlyTo>
        <gx:FlyTo>
          <gx:duration>0.6</gx:duration><gx:flyToMode>smooth</gx:flyToMode>
          <Camera><longitude>-74.25401469</longitude><latitude>41.16178342</latitude><altitude>190</altitude><heading>200.0</heading><tilt>57.65</tilt><roll>0</roll><altitudeMode>relativeToGround</altitudeMode></Camera>
        </gx:FlyTo>
        <gx:FlyTo>
          <gx:duration>0.6</gx:duration><gx:flyToMode>smooth</gx:flyToMode>
          <Camera><longitude>-74.25344919</longitude><latitude>41.16158488</latitude><altitude>190</altitude><heading>210.0</heading><tilt>57.65</tilt><roll>0</roll><altitudeMode>relativeToGround</altitudeMode></Camera>
        </gx:FlyTo>
        <gx:FlyTo>
          <gx:duration>0.6</gx:duration><gx:flyToMode>smooth</gx:flyToMode>
          <Camera><longitude>-74.25293808</longitude><latitude>41.16131543</latitude><altitude>190</altitude><heading>220.0</heading><tilt>57.65</tilt><roll>0</roll><altitudeMode>relativeToGround</altitudeMode></Camera>
        </gx:FlyTo>
        <gx:FlyTo>
          <gx:duration>0.6</gx:duration><gx:flyToMode>smooth</gx:flyToMode>
          <Camera><longitude>-74.25249688</longitude><latitude>41.16098325</latitude><altitude>190</altitude><heading>230.0</heading><tilt>57.65</tilt><roll>0</roll><altitudeMode>relativeToGround</altitudeMode></Camera>
        </gx:FlyTo>
        <gx:FlyTo>
          <gx:duration>0.6</gx:duration><gx:flyToMode>smooth</gx:flyToMode>
          <Camera><longitude>-74.25213900</longitude><latitude>41.16059844</latitude><altitude>190</altitude><heading>240.0</heading><tilt>57.65</tilt><roll>0</roll><altitudeMode>relativeToGround</altitudeMode></Camera>
        </gx:FlyTo>
        <gx:FlyTo>
          <gx:duration>0.6</gx:duration><gx:flyToMode>smooth</gx:flyToMode>
          <Camera><longitude>-74.25187533</longitude><latitude>41.16017268</latitude><altitude>190</altitude><heading>250.0</heading><tilt>57.65</tilt><roll>0</roll><altitudeMode>relativeToGround</altitudeMode></Camera>
        </gx:FlyTo>
        <gx:FlyTo>
          <gx:duration>0.6</gx:duration><gx:flyToMode>smooth</gx:flyToMode>
          <Camera><longitude>-74.25171387</longitude><latitude>41.15971893</latitude><altitude>190</altitude><heading>260.0</heading><tilt>57.65</tilt><roll>0</roll><altitudeMode>relativeToGround</altitudeMode></Camera>
        </gx:FlyTo>
        <gx:FlyTo>
          <gx:duration>0.6</gx:duration><gx:flyToMode>smooth</gx:flyToMode>
          <Camera><longitude>-74.25165950</longitude><latitude>41.15925095</latitude><altitude>190</altitude><heading>270.0</heading><tilt>57.65</tilt><roll>0</roll><altitudeMode>relativeToGround</altitudeMode></Camera>
        </gx:FlyTo>
        <gx:FlyTo>
          <gx:duration>0.6</gx:duration><gx:flyToMode>smooth</gx:flyToMode>
          <Camera><longitude>-74.25171391</longitude><latitude>41.15878298</latitude><altitude>190</altitude><heading>280.0</heading><tilt>57.65</tilt><roll>0</roll><altitudeMode>relativeToGround</altitudeMode></Camera>
        </gx:FlyTo>
        <gx:FlyTo>
          <gx:duration>0.6</gx:duration><gx:flyToMode>smooth</gx:flyToMode>
          <Camera><longitude>-74.25187541</longitude><latitude>41.15832923</latitude><altitude>190</altitude><heading>290.0</heading><tilt>57.65</tilt><roll>0</roll><altitudeMode>relativeToGround</altitudeMode></Camera>
        </gx:FlyTo>
        <gx:FlyTo>
          <gx:duration>0.6</gx:duration><gx:flyToMode>smooth</gx:flyToMode>
          <Camera><longitude>-74.25213912</longitude><latitude>41.15790349</latitude><altitude>190</altitude><heading>300.0</heading><tilt>57.65</tilt><roll>0</roll><altitudeMode>relativeToGround</altitudeMode></Camera>
        </gx:FlyTo>
        <gx:FlyTo>
          <gx:duration>0.6</gx:duration><gx:flyToMode>smooth</gx:flyToMode>
          <Camera><longitude>-74.25249701</longitude><latitude>41.15751869</latitude><altitude>190</altitude><heading>310.0</heading><tilt>57.65</tilt><roll>0</roll><altitudeMode>relativeToGround</altitudeMode></Camera>
        </gx:FlyTo>
        <gx:FlyTo>
          <gx:duration>0.6</gx:duration><gx:flyToMode>smooth</gx:flyToMode>
          <Camera><longitude>-74.25293821</longitude><latitude>41.15718653</latitude><altitude>190</altitude><heading>320.0</heading><tilt>57.65</tilt><roll>0</roll><altitudeMode>relativeToGround</altitudeMode></Camera>
        </gx:FlyTo>
        <gx:FlyTo>
          <gx:duration>0.6</gx:duration><gx:flyToMode>smooth</gx:flyToMode>
          <Camera><longitude>-74.25344930</longitude><latitude>41.15691710</latitude><altitude>190</altitude><heading>330.0</heading><tilt>57.65</tilt><roll>0</roll><altitudeMode>relativeToGround</altitudeMode></Camera>
        </gx:FlyTo>
        <gx:FlyTo>
          <gx:duration>0.6</gx:duration><gx:flyToMode>smooth</gx:flyToMode>
          <Camera><longitude>-74.25401478</longitude><latitude>41.15671857</latitude><altitude>190</altitude><heading>340.0</heading><tilt>57.65</tilt><roll>0</roll><altitudeMode>relativeToGround</altitudeMode></Camera>
        </gx:FlyTo>
        <gx:FlyTo>
          <gx:duration>0.6</gx:duration><gx:flyToMode>smooth</gx:flyToMode>
          <Camera><longitude>-74.25461745</longitude><latitude>41.15659699</latitude><altitude>190</altitude><heading>350.0</heading><tilt>57.65</tilt><roll>0</roll><altitudeMode>relativeToGround</altitudeMode></Camera>
        </gx:FlyTo>
        <gx:FlyTo>
          <gx:duration>0.6</gx:duration><gx:flyToMode>smooth</gx:flyToMode>
          <Camera><longitude>-74.25523900</longitude><latitude>41.15655605</latitude><altitude>190</altitude><heading>0.0</heading><tilt>57.65</tilt><roll>0</roll><altitudeMode>relativeToGround</altitudeMode></Camera>
        </gx:FlyTo>
        <gx:FlyTo>
          <gx:duration>0.6</gx:duration><gx:flyToMode>smooth</gx:flyToMode>
          <Camera><longitude>-74.25586055</longitude><latitude>41.15659699</latitude><altitude>190</altitude><heading>10.0</heading><tilt>57.65</tilt><roll>0</roll><altitudeMode>relativeToGround</altitudeMode></Camera>
        </gx:FlyTo>
        <gx:FlyTo>
          <gx:duration>0.6</gx:duration><gx:flyToMode>smooth</gx:flyToMode>
          <Camera><longitude>-74.25646322</longitude><latitude>41.15671857</latitude><altitude>190</altitude><heading>20.0</heading><tilt>57.65</tilt><roll>0</roll><altitudeMode>relativeToGround</altitudeMode></Camera>
        </gx:FlyTo>
        <gx:FlyTo>
          <gx:duration>0.6</gx:duration><gx:flyToMode>smooth</gx:flyToMode>
          <Camera><longitude>-74.25702870</longitude><latitude>41.15691710</latitude><altitude>190</altitude><heading>30.0</heading><tilt>57.65</tilt><roll>0</roll><altitudeMode>relativeToGround</altitudeMode></Camera>
        </gx:FlyTo>
        <gx:FlyTo>
          <gx:duration>0.6</gx:duration><gx:flyToMode>smooth</gx:flyToMode>
          <Camera><longitude>-74.25753979</longitude><latitude>41.15718653</latitude><altitude>190</altitude><heading>40.0</heading><tilt>57.65</tilt><roll>0</roll><altitudeMode>relativeToGround</altitudeMode></Camera>
        </gx:FlyTo>
        <gx:FlyTo>
          <gx:duration>0.6</gx:duration><gx:flyToMode>smooth</gx:flyToMode>
          <Camera><longitude>-74.25798099</longitude><latitude>41.15751869</latitude><altitude>190</altitude><heading>50.0</heading><tilt>57.65</tilt><roll>0</roll><altitudeMode>relativeToGround</altitudeMode></Camera>
        </gx:FlyTo>
        <gx:FlyTo>
          <gx:duration>0.6</gx:duration><gx:flyToMode>smooth</gx:flyToMode>
          <Camera><longitude>-74.25833888</longitude><latitude>41.15790349</latitude><altitude>190</altitude><heading>60.0</heading><tilt>57.65</tilt><roll>0</roll><altitudeMode>relativeToGround</altitudeMode></Camera>
        </gx:FlyTo>
        <gx:FlyTo>
          <gx:duration>0.6</gx:duration><gx:flyToMode>smooth</gx:flyToMode>
          <Camera><longitude>-74.25860259</longitude><latitude>41.15832923</latitude><altitude>190</altitude><heading>70.0</heading><tilt>57.65</tilt><roll>0</roll><altitudeMode>relativeToGround</altitudeMode></Camera>
        </gx:FlyTo>
        <gx:FlyTo>
          <gx:duration>0.6</gx:duration><gx:flyToMode>smooth</gx:flyToMode>
          <Camera><longitude>-74.25876409</longitude><latitude>41.15878298</latitude><altitude>190</altitude><heading>80.0</heading><tilt>57.65</tilt><roll>0</roll><altitudeMode>relativeToGround</altitudeMode></Camera>
        </gx:FlyTo>
        <gx:FlyTo>
          <gx:duration>0.6</gx:duration><gx:flyToMode>smooth</gx:flyToMode>
          <Camera><longitude>-74.25881850</longitude><latitude>41.15925095</latitude><altitude>190</altitude><heading>90.0</heading><tilt>57.65</tilt><roll>0</roll><altitudeMode>relativeToGround</altitudeMode></Camera>
        </gx:FlyTo>
        <gx:FlyTo>
          <gx:duration>0.6</gx:duration><gx:flyToMode>smooth</gx:flyToMode>
          <Camera><longitude>-74.25876413</longitude><latitude>41.15971893</latitude><altitude>190</altitude><heading>100.0</heading><tilt>57.65</tilt><roll>0</roll><altitudeMode>relativeToGround</altitudeMode></Camera>
        </gx:FlyTo>
        <gx:FlyTo>
          <gx:duration>0.6</gx:duration><gx:flyToMode>smooth</gx:flyToMode>
          <Camera><longitude>-74.25860267</longitude><latitude>41.16017268</latitude><altitude>190</altitude><heading>110.0</heading><tilt>57.65</tilt><roll>0</roll><altitudeMode>relativeToGround</altitudeMode></Camera>
        </gx:FlyTo>
        <gx:FlyTo>
          <gx:duration>0.6</gx:duration><gx:flyToMode>smooth</gx:flyToMode>
          <Camera><longitude>-74.25833900</longitude><latitude>41.16059844</latitude><altitude>190</altitude><heading>120.0</heading><tilt>57.65</tilt><roll>0</roll><altitudeMode>relativeToGround</altitudeMode></Camera>
        </gx:FlyTo>
        <gx:FlyTo>
          <gx:duration>0.6</gx:duration><gx:flyToMode>smooth</gx:flyToMode>
          <Camera><longitude>-74.25798112</longitude><latitude>41.16098325</latitude><altitude>190</altitude><heading>130.0</heading><tilt>57.65</tilt><roll>0</roll><altitudeMode>relativeToGround</altitudeMode></Camera>
        </gx:FlyTo>
        <gx:FlyTo>
          <gx:duration>0.6</gx:duration><gx:flyToMode>smooth</gx:flyToMode>
          <Camera><longitude>-74.25753992</longitude><latitude>41.16131543</latitude><altitude>190</altitude><heading>140.0</heading><tilt>57.65</tilt><roll>0</roll><altitudeMode>relativeToGround</altitudeMode></Camera>
        </gx:FlyTo>
        <gx:FlyTo>
          <gx:duration>0.6</gx:duration><gx:flyToMode>smooth</gx:flyToMode>
          <Camera><longitude>-74.25702881</longitude><latitude>41.16158488</latitude><altitude>190</altitude><heading>150.0</heading><tilt>57.65</tilt><roll>0</roll><altitudeMode>relativeToGround</altitudeMode></Camera>
        </gx:FlyTo>
        <gx:FlyTo>
          <gx:duration>0.6</gx:duration><gx:flyToMode>smooth</gx:flyToMode>
          <Camera><longitude>-74.25646331</longitude><latitude>41.16178342</latitude><altitude>190</altitude><heading>160.0</heading><tilt>57.65</tilt><roll>0</roll><altitudeMode>relativeToGround</altitudeMode></Camera>
        </gx:FlyTo>
        <gx:FlyTo>
          <gx:duration>0.6</gx:duration><gx:flyToMode>smooth</gx:flyToMode>
          <Camera><longitude>-74.25586060</longitude><latitude>41.16190500</latitude><altitude>190</altitude><heading>170.0</heading><tilt>57.65</tilt><roll>0</roll><altitudeMode>relativeToGround</altitudeMode></Camera>
        </gx:FlyTo>
        <gx:FlyTo>
          <gx:duration>0.6</gx:duration><gx:flyToMode>smooth</gx:flyToMode>
          <Camera><longitude>-74.25523900</longitude><latitude>41.16194595</latitude><altitude>190</altitude><heading>180.0</heading><tilt>57.65</tilt><roll>0</roll><altitudeMode>relativeToGround</altitudeMode></Camera>
        </gx:FlyTo>
        <gx:Wait><gx:duration>2.0</gx:duration></gx:Wait>
      </gx:Playlist>
    </gx:Tour>
  </Document>
</kml>

